{
"type": "FeatureCollection",
"crs": { "type": "name", "properties": { "name": "urn:ogc:def:crs:OGC:1.3:CRS84" } },
                                                                                
"features": [
{ "type": "Feature", "properties": { "กปภ_เขต": 1.000000, "กปภ_สาขา": "กปภ.สาขาชลบุรี(ชั้นพิเศษ)", "ที่อยู่": "152 ม.3 ถนนสุขุมวิท ต.บ้านสวน อ.เมือง จ.ชลบุรี 20000", "เบอร์โทรศัพท์": "0-3827-4865-6", "แฟ๊กซ์": "0-3827-4916", "พิกัด_Lat": "13.345751", "พิกัด_Lng": "100.977764" }, "geometry": { "type": "Point", "coordinates": [ 100.977764, 13.345751 ] } },
{ "type": "Feature", "properties": { "กปภ_เขต": 1.000000, "กปภ_สาขา": "กปภ.สาขาพัทยา(ชั้นพิเศษ)", "ที่อยู่": "26\/1 ม.12 ถ.ชัยพรวิถี ต.หนองปรือ อ.บางละมุง จ.ชลบุรี 20150", "เบอร์โทรศัพท์": "0-3822-2461-4", "แฟ๊กซ์": "0-3822-2090", "พิกัด_Lat": "12.963357", "พิกัด_Lng": "100.919432" }, "geometry": { "type": "Point", "coordinates": [ 100.919432, 12.963357 ] } },
{ "type": "Feature", "properties": { "กปภ_เขต": 1.000000, "กปภ_สาขา": "กปภ.สาขาบ้านบึง", "ที่อยู่": "34 ถ.ธารนที ต.บ้านบึง อ.บ้านบึง จ.ชลบุรี 20170", "เบอร์โทรศัพท์": "0-3844-3710", "แฟ๊กซ์": "0-384-44325", "พิกัด_Lat": "13.299103", "พิกัด_Lng": "101.108824" }, "geometry": { "type": "Point", "coordinates": [ 101.108824, 13.299103 ] } },
{ "type": "Feature", "properties": { "กปภ_เขต": 1.000000, "กปภ_สาขา": "กปภ.สาขาพนัสนิคม", "ที่อยู่": "7 ถ.จารุวร ต.พนัสนิคม อ.พนัสนิคม จ.ชลบุรี 20140", "เบอร์โทรศัพท์": "0-3846-1042, 0-3846-2973", "แฟ๊กซ์": "0-3846-1042 ต่อ 109", "พิกัด_Lat": "13.449365", "พิกัด_Lng": "101.176362" }, "geometry": { "type": "Point", "coordinates": [ 101.176362, 13.449365 ] } },
{ "type": "Feature", "properties": { "กปภ_เขต": 1.000000, "กปภ_สาขา": "กปภ.สาขาศรีราชา", "ที่อยู่": "141\/19 ม.2 ต.สุรศักดิ์ อ.ศรีราชา จ.ชลบุรี 20110", "เบอร์โทรศัพท์": "0-3831-1131", "แฟ๊กซ์": "0-3832-8554", "พิกัด_Lat": "13.157136", "พิกัด_Lng": "100.948560" }, "geometry": { "type": "Point", "coordinates": [ 100.94856, 13.157136 ] } },
{ "type": "Feature", "properties": { "กปภ_เขต": 1.000000, "กปภ_สาขา": "กปภ.สาขาแหลมฉบัง", "ที่อยู่": "215 ม. 9 ต.ทุ่งสุขลา อ.ศรีราชา จ.ชลบุรี 20230", "เบอร์โทรศัพท์": "0-3835-0447-8", "แฟ๊กซ์": "0-3876-8408", "พิกัด_Lat": "13.109799", "พิกัด_Lng": "100.933231" }, "geometry": { "type": "Point", "coordinates": [ 100.933231, 13.109799 ] } },
{ "type": "Feature", "properties": { "กปภ_เขต": 1.000000, "กปภ_สาขา": "กปภ.สาขาฉะเชิงเทรา", "ที่อยู่": "61 ถ.จุลละนันทน์ ต.หน้าเมือง อ.เมือง จ.ฉะเชิงเทรา 24000", "เบอร์โทรศัพท์": "0-3851-1133", "แฟ๊กซ์": "0-3881-4240", "พิกัด_Lat": "13.688456", "พิกัด_Lng": "101.072138" }, "geometry": { "type": "Point", "coordinates": [ 101.072138, 13.688456 ] } },
{ "type": "Feature", "properties": { "กปภ_เขต": 1.000000, "กปภ_สาขา": "กปภ.สาขาบางปะกง", "ที่อยู่": "89 ม.2 ถ.เทพรัตน ต.บางวัว อ.บางปะกง จ.ฉะเชิงเทรา  24180", "เบอร์โทรศัพท์": "0-3853-8339", "แฟ๊กซ์": "0-3853-9014", "พิกัด_Lat": "13.547108", "พิกัด_Lng": "100.960781" }, "geometry": { "type": "Point", "coordinates": [ 100.960781, 13.547108 ] } },
{ "type": "Feature", "properties": { "กปภ_เขต": 1.000000, "กปภ_สาขา": "กปภ.สาขาบางคล้า", "ที่อยู่": "18\/1 ถ.ฤทธิ์ประศาสน์  ต.บางคล้า  อ.บางคล้า  จ.ฉะเชิงเทรา  24110", "เบอร์โทรศัพท์": "0-3854-1153", "แฟ๊กซ์": "0-3854-1574", "พิกัด_Lat": "13.721382", "พิกัด_Lng": "101.218903" }, "geometry": { "type": "Point", "coordinates": [ 101.218903, 13.721382 ] } },
{ "type": "Feature", "properties": { "กปภ_เขต": 1.000000, "กปภ_สาขา": "กปภ.สาขาพนมสารคาม", "ที่อยู่": "446  ม.1  ต.พนมสารคาม  อ.พนมสารคาม จ.ฉะเชิงเทรา 24120", "เบอร์โทรศัพท์": "0-3855-1151", "แฟ๊กซ์": "0-3855-1151", "พิกัด_Lat": "13.741529", "พิกัด_Lng": "101.349337" }, "geometry": { "type": "Point", "coordinates": [ 101.349337, 13.741529 ] } },
{ "type": "Feature", "properties": { "กปภ_เขต": 1.000000, "กปภ_สาขา": "กปภ.สาขาระยอง", "ที่อยู่": "222\/22 ม.5 ต.เชิงเนิน อ.เมืองระยอง จ.ระยอง 21000", "เบอร์โทรศัพท์": "0-3861-1116, 0-3861-5276", "แฟ๊กซ์": "0-3801-2017", "พิกัด_Lat": "12.673064", "พิกัด_Lng": "101.295411" }, "geometry": { "type": "Point", "coordinates": [ 101.295411, 12.673064 ] } },
{ "type": "Feature", "properties": { "กปภ_เขต": 1.000000, "กปภ_สาขา": "กปภ.สาขาบ้านฉาง", "ที่อยู่": "118 ม.5 ต.สำนักท้อน อ.บ้านฉาง จ.ระยอง 21130", "เบอร์โทรศัพท์": "0-3860-2008", "แฟ๊กซ์": "0-3860-1292", "พิกัด_Lat": "12.737176", "พิกัด_Lng": "101.043743" }, "geometry": { "type": "Point", "coordinates": [ 101.043743, 12.737176 ] } },
{ "type": "Feature", "properties": { "กปภ_เขต": 1.000000, "กปภ_สาขา": "กปภ.สาขาปากน้ำประแสร์", "ที่อยู่": "35 ม.7 ต.ปากน้ำประแสร์ อ.แกลง จ.ระยอง 21110", "เบอร์โทรศัพท์": "0-3866-1244", "แฟ๊กซ์": "0-3866-1505", "พิกัด_Lat": "12.713258", "พิกัด_Lng": "101.709954" }, "geometry": { "type": "Point", "coordinates": [ 101.709954, 12.713258 ] } },
{ "type": "Feature", "properties": { "กปภ_เขต": 1.000000, "กปภ_สาขา": "กปภ.สาขาจันทบุรี", "ที่อยู่": "5 ถ.ศรียานุสรณ์ ต.วัดใหม่ อ.เมือง จ.จันทบุรี 22000", "เบอร์โทรศัพท์": "0-3931-1126", "แฟ๊กซ์": "0-3935-0318", "พิกัด_Lat": "12.614393", "พิกัด_Lng": "102.110713" }, "geometry": { "type": "Point", "coordinates": [ 102.110713, 12.614393 ] } },
{ "type": "Feature", "properties": { "กปภ_เขต": 1.000000, "กปภ_สาขา": "กปภ.สาขาขลุง", "ที่อยู่": "15\/1 ม.3 ต.ซึ้ง อ.ขลุง จ.จันทบุรี 22110", "เบอร์โทรศัพท์": "0-3944-1660", "แฟ๊กซ์": "0-3944-1133", "พิกัด_Lat": "12.460076", "พิกัด_Lng": "102.232519" }, "geometry": { "type": "Point", "coordinates": [ 102.232519, 12.460076 ] } },
{ "type": "Feature", "properties": { "กปภ_เขต": 1.000000, "กปภ_สาขา": "กปภ.สาขาตราด", "ที่อยู่": "390 ม.3 ถ.พัฒนาการปลายคลอง ต.วังกระแจะ อ.เมือง จ.ตราด  23000", "เบอร์โทรศัพท์": "0-3952-0416", "แฟ๊กซ์": "0-3951-1166", "พิกัด_Lat": "12.249230", "พิกัด_Lng": "102.498888" }, "geometry": { "type": "Point", "coordinates": [ 102.498888, 12.24923 ] } },
{ "type": "Feature", "properties": { "กปภ_เขต": 1.000000, "กปภ_สาขา": "กปภ.สาขาคลองใหญ่", "ที่อยู่": "576 ม.2 ต.คลองใหญ่ อ.คลองใหญ่ จ.ตราด 23110", "เบอร์โทรศัพท์": "0-3958-1009", "แฟ๊กซ์": "0-3958-2250", "พิกัด_Lat": "11.776806", "พิกัด_Lng": "102.887453" }, "geometry": { "type": "Point", "coordinates": [ 102.887453, 11.776806 ] } },
{ "type": "Feature", "properties": { "กปภ_เขต": 1.000000, "กปภ_สาขา": "กปภ.สาขาสระแก้ว", "ที่อยู่": "186\/3 ถ.สุวรรณศร ต.สระแก้ว อ.เมือง จ.สระแก้ว 27000", "เบอร์โทรศัพท์": "0-3724-2705", "แฟ๊กซ์": "0-3724-1584", "พิกัด_Lat": "13.817674", "พิกัด_Lng": "102.068882" }, "geometry": { "type": "Point", "coordinates": [ 102.068882, 13.817674 ] } },
{ "type": "Feature", "properties": { "กปภ_เขต": 1.000000, "กปภ_สาขา": "กปภ.สาขาวัฒนานคร", "ที่อยู่": "ม.10 ต.วัฒนานคร อ.วัฒนานคร จ.สระแก้ว 27160", "เบอร์โทรศัพท์": "0-3726-1405", "แฟ๊กซ์": "0-3726-1405", "พิกัด_Lat": "13.750043", "พิกัด_Lng": "102.321696" }, "geometry": { "type": "Point", "coordinates": [ 102.321696, 13.750043 ] } },
{ "type": "Feature", "properties": { "กปภ_เขต": 1.000000, "กปภ_สาขา": "กปภ.สาขาอรัญประเทศ", "ที่อยู่": "40\/1 ถ.บำรุงราษฎ์ ต.อรัญประเทศ อ.อรัญประเทศ จ.สระแก้ว 27120", "เบอร์โทรศัพท์": "0-3723-1133", "แฟ๊กซ์": "0-3723-1596", "พิกัด_Lat": "13.688489", "พิกัด_Lng": "102.503364" }, "geometry": { "type": "Point", "coordinates": [ 102.503364, 13.688489 ] } },
{ "type": "Feature", "properties": { "กปภ_เขต": 1.000000, "กปภ_สาขา": "กปภ.สาขาปราจีนบุรี", "ที่อยู่": "21\/2 ม.4 ต.บางบริบูรณ์ อ.เมือง จ.ปราจีนบุรี 25000", "เบอร์โทรศัพท์": "0-3748-2234-5", "แฟ๊กซ์": "0-3748-2233", "พิกัด_Lat": "14.056460", "พิกัด_Lng": "101.390791" }, "geometry": { "type": "Point", "coordinates": [ 101.390791, 14.05646 ] } },
{ "type": "Feature", "properties": { "กปภ_เขต": 1.000000, "กปภ_สาขา": "กปภ.สาขากบินทร์บุรี", "ที่อยู่": "ถนนเทศบาล 2 ต.กบินทร์ อ.กบินทร์บุรี จ.ปราจีนบุรี 25110", "เบอร์โทรศัพท์": "0-3728-0525", "แฟ๊กซ์": "0-3728-0525", "พิกัด_Lat": "13.986652", "พิกัด_Lng": "101.702114" }, "geometry": { "type": "Point", "coordinates": [ 101.702114, 13.986652 ] } },
{ "type": "Feature", "properties": { "กปภ_เขต": 2.000000, "กปภ_สาขา": "กปภ.สาขาพระพุทธบาท", "ที่อยู่": "47 ม.5 ถ.พหลโยธิน อ.พระพุทธบาท จ.สระบุรี 18120", "เบอร์โทรศัพท์": "0-3626-9408-9", "แฟ๊กซ์": "0-3626-9409", "พิกัด_Lat": "14.725628", "พิกัด_Lng": "100.794250" }, "geometry": { "type": "Point", "coordinates": [ 100.79425, 14.725628 ] } },
{ "type": "Feature", "properties": { "กปภ_เขต": 2.000000, "กปภ_สาขา": "กปภ.สาขาหนองแค", "ที่อยู่": "144 หมู่ 8 ถ.พหลโยธิน ต.ห้วยทราย อ.หนองแค จ.สระบุรี 18140", "เบอร์โทรศัพท์": "0-3639-0561, 0-3639-0562", "แฟ๊กซ์": "0-3637-9580", "พิกัด_Lat": "14.401654", "พิกัด_Lng": "100.891249" }, "geometry": { "type": "Point", "coordinates": [ 100.891249, 14.401654 ] } },
{ "type": "Feature", "properties": { "กปภ_เขต": 2.000000, "กปภ_สาขา": "กปภ.สาขามวกเหล็ก", "ที่อยู่": "424\/5 ม.1 ต.มิตรภาพ อ.มวกเหล็ก จ.สระบุรี 18180", "เบอร์โทรศัพท์": "0-3634-1966", "แฟ๊กซ์": "-", "พิกัด_Lat": "14.648304", "พิกัด_Lng": "101.203906" }, "geometry": { "type": "Point", "coordinates": [ 101.203906, 14.648304 ] } },
{ "type": "Feature", "properties": { "กปภ_เขต": 2.000000, "กปภ_สาขา": "กปภ.สาขาบ้านหมอ", "ที่อยู่": "72\/1 ม.5 ถ.คลองชลประทาน ต.บ้านหมอ อ.บ้านหมอ จ.สระบุรี 18130", "เบอร์โทรศัพท์": "0-3630-0675", "แฟ๊กซ์": "0-3630-0676", "พิกัด_Lat": "14.616071", "พิกัด_Lng": "100.732024" }, "geometry": { "type": "Point", "coordinates": [ 100.732024, 14.616071 ] } },
{ "type": "Feature", "properties": { "กปภ_เขต": 2.000000, "กปภ_สาขา": "กปภ.สาขาลพบุรี", "ที่อยู่": "216 ถ.นารายณ์มหาราช ต.ทะเลชุบศร อ.เมือง  จ.ลพบุรี  15000", "เบอร์โทรศัพท์": "0-3641-1480", "แฟ๊กซ์": "0-3641-2021", "พิกัด_Lat": "14.799378", "พิกัด_Lng": "100.637550" }, "geometry": { "type": "Point", "coordinates": [ 100.63755, 14.799378 ] } },
{ "type": "Feature", "properties": { "กปภ_เขต": 2.000000, "กปภ_สาขา": "กปภ.สาขาบ้านหมี่", "ที่อยู่": "56 ม.5 ถ.สุระนารายณ์ ต.โพนทอง อ.บ้านหมี่ จ.ลพบุรี 15110", "เบอร์โทรศัพท์": "0-3647-1316", "แฟ๊กซ์": "0-3647-2059", "พิกัด_Lat": "15.044850", "พิกัด_Lng": "100.547330" }, "geometry": { "type": "Point", "coordinates": [ 100.54733, 15.04485 ] } },
{ "type": "Feature", "properties": { "กปภ_เขต": 2.000000, "กปภ_สาขา": "กปภ.สาขาชัยบาดาล", "ที่อยู่": "460 ม.8 ต.ลำนารายณ์ อ.ชัยบาดาล จ.ลพบุรี 15130", "เบอร์โทรศัพท์": "0-3646-1565", "แฟ๊กซ์": "-", "พิกัด_Lat": "15.208216", "พิกัด_Lng": "101.140608" }, "geometry": { "type": "Point", "coordinates": [ 101.140608, 15.208216 ] } },
{ "type": "Feature", "properties": { "กปภ_เขต": 2.000000, "กปภ_สาขา": "กปภ.สาขาสิงห์บุรี", "ที่อยู่": "166 ม.1 ถ.สิงห์บุรี-บางสะพาน ต.บางมัญ อ.เมือง จ.สิงห์บุรี 16000", "เบอร์โทรศัพท์": "0-3651-1599", "แฟ๊กซ์": "0-3651-1670", "พิกัด_Lat": "14.898473", "พิกัด_Lng": "100.405880" }, "geometry": { "type": "Point", "coordinates": [ 100.40588, 14.898473 ] } },
{ "type": "Feature", "properties": { "กปภ_เขต": 2.000000, "กปภ_สาขา": "กปภ.สาขาอ่างทอง", "ที่อยู่": "59 ถ.เทศบาล8 ต.ตลาดหลวง อ.เมือง จ.อ่างทอง 14000", "เบอร์โทรศัพท์": "0-3561-1662", "แฟ๊กซ์": "0-3562-5099", "พิกัด_Lat": "14.590065", "พิกัด_Lng": "100.459748" }, "geometry": { "type": "Point", "coordinates": [ 100.459748, 14.590065 ] } },
{ "type": "Feature", "properties": { "กปภ_เขต": 2.000000, "กปภ_สาขา": "กปภ.สาขาวิเศษชัยชาญ", "ที่อยู่": "1\/2 ม.4 ถ.โพธิพญา ต.ไผ่จำศีล อ.วิเศษชัยชาญ จ.อ่างทอง 14110", "เบอร์โทรศัพท์": "0-3663-1188", "แฟ๊กซ์": "-", "พิกัด_Lat": "14.599118", "พิกัด_Lng": "100.363202" }, "geometry": { "type": "Point", "coordinates": [ 100.363202, 14.599118 ] } },
{ "type": "Feature", "properties": { "กปภ_เขต": 2.000000, "กปภ_สาขา": "กปภ.สาขาพระนครศรีอยุธยา(ชั้นพิเศษ)", "ที่อยู่": "118 ม.3 ต.คลองสวนพลู อ.พระนครศรีอยุธยา จ.พระนครศรีอยุธยา 13000", "เบอร์โทรศัพท์": "0-3533-6625, 0-3533-6601, 0-3533-6628", "แฟ๊กซ์": null, "พิกัด_Lat": "14.335085", "พิกัด_Lng": "100.609449" }, "geometry": { "type": "Point", "coordinates": [ 100.609449, 14.335085 ] } },
{ "type": "Feature", "properties": { "กปภ_เขต": 2.000000, "กปภ_สาขา": "กปภ.สาขาผักไห่", "ที่อยู่": "38\/3 ม.11 ต.ผักไห่ อ.ผักไห่ จ.พระนครศรีอยุธยา 13120", "เบอร์โทรศัพท์": "0-3539-1020, 0-3539-2125", "แฟ๊กซ์": "0-3539-2125", "พิกัด_Lat": "14.455926", "พิกัด_Lng": "100.374361" }, "geometry": { "type": "Point", "coordinates": [ 100.374361, 14.455926 ] } },
{ "type": "Feature", "properties": { "กปภ_เขต": 2.000000, "กปภ_สาขา": "กปภ.สาขาเสนา", "ที่อยู่": "9\/9 หมู่ 2 ถ. บำรุงท้องที่ ต.สามกอ อ.เสนา จ.พระนครศรีอยุธยา 13110", "เบอร์โทรศัพท์": "0-3520-1541, 0-3520-1561", "แฟ๊กซ์": "-", "พิกัด_Lat": "14.325371", "พิกัด_Lng": "100.405345" }, "geometry": { "type": "Point", "coordinates": [ 100.405345, 14.325371 ] } },
{ "type": "Feature", "properties": { "กปภ_เขต": 2.000000, "กปภ_สาขา": "กปภ.สาขาท่าเรือ", "ที่อยู่": "399\/7  ม.9 ต.จำปา อ.ท่าเรือ จ.พระนครศรีอยุธยา  13130", "เบอร์โทรศัพท์": "0-3534-1814, 0-3531-1829, 0-3534-2507", "แฟ๊กซ์": null, "พิกัด_Lat": "14.566572", "พิกัด_Lng": "100.749575" }, "geometry": { "type": "Point", "coordinates": [ 100.749575, 14.566572 ] } },
{ "type": "Feature", "properties": { "กปภ_เขต": 2.000000, "กปภ_สาขา": "กปภ.สาขาปทุมธานี(ชั้นพิเศษ)", "ที่อยู่": "8\/1 ถ. ปทุม - ลาดหลุมแก้ว ต.บางปรอก อ.เมือง จ.ปทุมธานี 12000", "เบอร์โทรศัพท์": "0-2581-6656, 0-2581-4541", "แฟ๊กซ์": "0-2581-4541", "พิกัด_Lat": "14.021106", "พิกัด_Lng": "100.521035" }, "geometry": { "type": "Point", "coordinates": [ 100.521035, 14.021106 ] } },
{ "type": "Feature", "properties": { "กปภ_เขต": 2.000000, "กปภ_สาขา": "กปภ.สาขารังสิต(ชั้นพิเศษ)", "ที่อยู่": "72 ซ.รังสิต-ปทุมธานี 8 ต.ประชาธิปัตย์ อ.ธัญญบุรี จ.ปทุมธานี 12130", "เบอร์โทรศัพท์": "0 2567-4985, 0-2567-4997", "แฟ๊กซ์": "0-2567-5003", "พิกัด_Lat": "13.990932", "พิกัด_Lng": "100.610515" }, "geometry": { "type": "Point", "coordinates": [ 100.610515, 13.990932 ] } },
{ "type": "Feature", "properties": { "กปภ_เขต": 2.000000, "กปภ_สาขา": "กปภ.สาขานครนายก", "ที่อยู่": "97\/6 ม.5 ต.บ้านใหญ่ อ.เมือง จ.นครนายก 26000", "เบอร์โทรศัพท์": "0-3731-1005", "แฟ๊กซ์": "0-3731-1602", "พิกัด_Lat": "14.216488", "พิกัด_Lng": "101.226747" }, "geometry": { "type": "Point", "coordinates": [ 101.226747, 14.216488 ] } },
{ "type": "Feature", "properties": { "กปภ_เขต": 2.000000, "กปภ_สาขา": "กปภ.สาขาบ้านนา", "ที่อยู่": "53 ม.6 ถ.บ้านนา-บางอ้อ ต.บ้านนา อ.บ้านนา จ.นครนายก 26110", "เบอร์โทรศัพท์": "0-3738-1838, 0-3738-1839", "แฟ๊กซ์": "0-3738-1838", "พิกัด_Lat": "14.257626", "พิกัด_Lng": "101.072423" }, "geometry": { "type": "Point", "coordinates": [ 101.072423, 14.257626 ] } },
{ "type": "Feature", "properties": { "กปภ_เขต": 2.000000, "กปภ_สาขา": "กปภ.สาขานครราชสีมา", "ที่อยู่": "263 ม.4 ถ.มิตรภาพ ต.จอหอ อ.เมือง จ.นครราชสีมา 30310", "เบอร์โทรศัพท์": "0-4437-1444", "แฟ๊กซ์": "0-4437-2368", "พิกัด_Lat": "15.039210", "พิกัด_Lng": "102.147910" }, "geometry": { "type": "Point", "coordinates": [ 102.14791, 15.03921 ] } },
{ "type": "Feature", "properties": { "กปภ_เขต": 2.000000, "กปภ_สาขา": "กปภ.สาขาปากช่อง", "ที่อยู่": "874 ถ.มิตรภาพ ต.ปากช่อง อ.ปากช่อง จ.นครราชสีมา 30130", "เบอร์โทรศัพท์": "0-4431-1496", "แฟ๊กซ์": "0-4431-1004", "พิกัด_Lat": "14.712545", "พิกัด_Lng": "101.424482" }, "geometry": { "type": "Point", "coordinates": [ 101.424482, 14.712545 ] } },
{ "type": "Feature", "properties": { "กปภ_เขต": 2.000000, "กปภ_สาขา": "กปภ.สาขาครบุรี", "ที่อยู่": "239 ม.8 ต.บ้านใหม่ อ.ครบุรี จ.นครราชสีมา 30250", "เบอร์โทรศัพท์": "0-4444-8405", "แฟ๊กซ์": "0-4444-8405", "พิกัด_Lat": "14.529017", "พิกัด_Lng": "102.267275" }, "geometry": { "type": "Point", "coordinates": [ 102.267275, 14.529017 ] } },
{ "type": "Feature", "properties": { "กปภ_เขต": 2.000000, "กปภ_สาขา": "กปภ.สาขาสีคิ้ว", "ที่อยู่": "234 ม.5 ถ.มิตรถาพ ต.ลาดบัวขาว อ.สีคิ้ว จ.นครราชสีมา 30340", "เบอร์โทรศัพท์": "0-4441-6939", "แฟ๊กซ์": "0-4441-6938", "พิกัด_Lat": "14.857884", "พิกัด_Lng": "101.675883" }, "geometry": { "type": "Point", "coordinates": [ 101.675883, 14.857884 ] } },
{ "type": "Feature", "properties": { "กปภ_เขต": 2.000000, "กปภ_สาขา": "กปภ.สาขาปักธงชัย", "ที่อยู่": "161\/2 ม.3 ถ.ไปเขื่อนลำพระเพลิง ต.งิ้ว อ.ปักธงชัย จ.นครราชสีมา 30150", "เบอร์โทรศัพท์": "0-4444-1525", "แฟ๊กซ์": "0-4445-2252", "พิกัด_Lat": "14.695388", "พิกัด_Lng": "102.014930" }, "geometry": { "type": "Point", "coordinates": [ 102.01493, 14.695388 ] } },
{ "type": "Feature", "properties": { "กปภ_เขต": 2.000000, "กปภ_สาขา": "กปภ.สาขาโชคชัย", "ที่อยู่": "184 ม.6 ถ.เสรีประชา ต.โชคชัย อ.โชคชัย จ.นครราชสีมา 30190", "เบอร์โทรศัพท์": "0-4449-1497", "แฟ๊กซ์": "-", "พิกัด_Lat": "14.727231", "พิกัด_Lng": "102.162713" }, "geometry": { "type": "Point", "coordinates": [ 102.162713, 14.727231 ] } },
{ "type": "Feature", "properties": { "กปภ_เขต": 2.000000, "กปภ_สาขา": "กปภ.สาขาพิมาย", "ที่อยู่": "374 ม.1 ถ.ท่าสงกรานต์ ต.ในเมือง อ.พิมาย จ.นครราชสีมา 30110", "เบอร์โทรศัพท์": "0-4447-1399", "แฟ๊กซ์": "0-4447-1399", "พิกัด_Lat": "15.224740", "พิกัด_Lng": "102.493313" }, "geometry": { "type": "Point", "coordinates": [ 102.493313, 15.22474 ] } },
{ "type": "Feature", "properties": { "กปภ_เขต": 2.000000, "กปภ_สาขา": "กปภ.สาขาชุมพวง", "ที่อยู่": "411 ม.11 ถ.ท่าข้าม ต.ชุมพวง อ.ชุมพวง จ.นครราชสีมา 30270", "เบอร์โทรศัพท์": "0-4447-7145", "แฟ๊กซ์": "0-4447-7145", "พิกัด_Lat": "15.354879", "พิกัด_Lng": "102.745201" }, "geometry": { "type": "Point", "coordinates": [ 102.745201, 15.354879 ] } },
{ "type": "Feature", "properties": { "กปภ_เขต": 2.000000, "กปภ_สาขา": "กปภ.สาขาโนนสูง", "ที่อยู่": "188 ถ.โนนสูง ต.โนนสูง มิตรภาพ อ.โนนสูง จ.นครราชสีมา 30160", "เบอร์โทรศัพท์": "0-4437-9260", "แฟ๊กซ์": "0-4437-9260", "พิกัด_Lat": "15.164730", "พิกัด_Lng": "102.247690" }, "geometry": { "type": "Point", "coordinates": [ 102.24769, 15.16473 ] } },
{ "type": "Feature", "properties": { "กปภ_เขต": 2.000000, "กปภ_สาขา": "กปภ.สาขาด่านขุนทด", "ที่อยู่": "หมู่ 4 ถ.สีคิ้ว-ชัยภูมิ ต.ด่านขุนทด อ.ด่านขุนทด จ.นครราชสีมา 30210", "เบอร์โทรศัพท์": "0-4438-9900", "แฟ๊กซ์": "0-4438-9901", "พิกัด_Lat": "15.182742", "พิกัด_Lng": "101.752589" }, "geometry": { "type": "Point", "coordinates": [ 101.752589, 15.182742 ] } },
{ "type": "Feature", "properties": { "กปภ_เขต": 2.000000, "กปภ_สาขา": "กปภ.สาขาคลองหลวง", "ที่อยู่": "40 ม.2 ต.คลองห้า อ.คลองหลวง จ.ปทุมธานี 12120", "เบอร์โทรศัพท์": "0-2567-1576", "แฟ๊กซ์": "0-2567-1577", "พิกัด_Lat": "14.043579", "พิกัด_Lng": "100.709366" }, "geometry": { "type": "Point", "coordinates": [ 100.709366, 14.043579 ] } },
{ "type": "Feature", "properties": { "กปภ_เขต": 2.000000, "กปภ_สาขา": "กปภ.สาขาธัญบุรี", "ที่อยู่": "6 ม.12 ต.บึงคำพร้อย อ.ลำลูกกา จ.ปทุมธานี 12150", "เบอร์โทรศัพท์": "0-2577-2958", "แฟ๊กซ์": "0-2577-2958", "พิกัด_Lat": "13.938612", "พิกัด_Lng": "100.708728" }, "geometry": { "type": "Point", "coordinates": [ 100.708728, 13.938612 ] } },
{ "type": "Feature", "properties": { "กปภ_เขต": 3.000000, "กปภ_สาขา": "กปภ.สาขาบ้านโป่ง", "ที่อยู่": "68\/13 ถ. บ้านปากแรต ต.บ้านโป่งอ.บ้านโป่ง จ.ราชบุรี 70110", "เบอร์โทรศัพท์": "0-3221-1280, 0-3421-1407", "แฟ๊กซ์": "0-3221-1280", "พิกัด_Lat": "13.826445", "พิกัด_Lng": "99.865938" }, "geometry": { "type": "Point", "coordinates": [ 99.865938, 13.826445 ] } },
{ "type": "Feature", "properties": { "กปภ_เขต": 3.000000, "กปภ_สาขา": "กปภ.สาขาสวนผึ้ง", "ที่อยู่": "187 ม.1 ถ.ชัฎป่าหวาย-โป่งกระทิง ต.ท่าเคย อ.สวนผึ้ง จ.ราชบุรี 70180", "เบอร์โทรศัพท์": "0-3236-4397", "แฟ๊กซ์": "0-3236-4397", "พิกัด_Lat": "13.538814", "พิกัด_Lng": "99.447476" }, "geometry": { "type": "Point", "coordinates": [ 99.447476, 13.538814 ] } },
{ "type": "Feature", "properties": { "กปภ_เขต": 3.000000, "กปภ_สาขา": "กปภ.สาขาปากท่อ", "ที่อยู่": "239 ม.8 ถ.ปากท่อ-สมุทรสงคราม ต.ปากท่อ อ.ปากท่อ จ.ราชบุรี 70140", "เบอร์โทรศัพท์": "0-3228-1296", "แฟ๊กซ์": "0-3228-1231", "พิกัด_Lat": "13.372516", "พิกัด_Lng": "99.837512" }, "geometry": { "type": "Point", "coordinates": [ 99.837512, 13.372516 ] } },
{ "type": "Feature", "properties": { "กปภ_เขต": 3.000000, "กปภ_สาขา": "กปภ.สาขาราชบุรี", "ที่อยู่": "88 ม.1 ถนนเพชรเกษม ต.ท่าราบ อ.เมือง จ.ราชบุรี 70000", "เบอร์โทรศัพท์": "0-3273-7185", "แฟ๊กซ์": "0-3273-7186", "พิกัด_Lat": "13.588700", "พิกัด_Lng": "99.831088" }, "geometry": { "type": "Point", "coordinates": [ 99.831088, 13.5887 ] } },
{ "type": "Feature", "properties": { "กปภ_เขต": 3.000000, "กปภ_สาขา": "กปภ.สาขาสมุทรสงคราม", "ที่อยู่": "885\/1 ถ.ราชญาติรักษา ต.แม่กลอง อ.เมือง จ.สมุทรสงคราม 75000", "เบอร์โทรศัพท์": "0-3471-1601", "แฟ๊กซ์": "0-3471-1602", "พิกัด_Lat": "13.400922", "พิกัด_Lng": "99.998220" }, "geometry": { "type": "Point", "coordinates": [ 99.99822, 13.400922 ] } },
{ "type": "Feature", "properties": { "กปภ_เขต": 3.000000, "กปภ_สาขา": "กปภ.สาขาสมุทรสาคร(ชั้นพิเศษ)", "ที่อยู่": "93\/796 ม.7 ถ.มหาชัยชิลล่า ต.ท่าทราย อ.เมือง จ.สมุทรสาคร 74000", "เบอร์โทรศัพท์": "0-3441-1844, 0-3442-1260, 0-3482-7727", "แฟ๊กซ์": "0-3442-6911", "พิกัด_Lat": "13.576551", "พิกัด_Lng": "100.264970" }, "geometry": { "type": "Point", "coordinates": [ 100.26497, 13.576551 ] } },
{ "type": "Feature", "properties": { "กปภ_เขต": 3.000000, "กปภ_สาขา": "กปภ.สาขาอ้อมน้อย", "ที่อยู่": "30\/13 ม.12  ซ.ประชาราษฎร์42 ต.ไร่ขิง อ.สามพราน จ.นครปฐม 73210", "เบอร์โทรศัพท์": "0-2420-8008 - 9", "แฟ๊กซ์": "0-2420-8009", "พิกัด_Lat": "13.750294", "พิกัด_Lng": "100.297432" }, "geometry": { "type": "Point", "coordinates": [ 100.297432, 13.750294 ] } },
{ "type": "Feature", "properties": { "กปภ_เขต": 3.000000, "กปภ_สาขา": "กปภ.สาขาสามพราน", "ที่อยู่": "204\/5 ม.8 ต.สามพราน อ.สามพราน จ.นครปฐม 73110", "เบอร์โทรศัพท์": "0-3432-2681", "แฟ๊กซ์": "0-3432-5602", "พิกัด_Lat": "13.727636", "พิกัด_Lng": "100.208222" }, "geometry": { "type": "Point", "coordinates": [ 100.208222, 13.727636 ] } },
{ "type": "Feature", "properties": { "กปภ_เขต": 3.000000, "กปภ_สาขา": "กปภ.สาขาสุพรรณบุรี", "ที่อยู่": "176 ถ.พระพันวษา ต.ท่าพี่เลี้ยง อ.เมือง จ.สุพรรณบุรี 72000", "เบอร์โทรศัพท์": "0-355-21617-8", "แฟ๊กซ์": "0-355-21617", "พิกัด_Lat": "14.476140", "พิกัด_Lng": "100.118468" }, "geometry": { "type": "Point", "coordinates": [ 100.118468, 14.47614 ] } },
{ "type": "Feature", "properties": { "กปภ_เขต": 3.000000, "กปภ_สาขา": "กปภ.สาขาศรีประจันต์", "ที่อยู่": "554 ม.3 ซ.บ้านช่อง ถ.สุพรรณบุรี-ชัยนาท ต.ศรีประจันต์ อ.ศรีประจันต์ จ.สุพรรณบุรี 72140", "เบอร์โทรศัพท์": "0-3558-1003", "แฟ๊กซ์": "0-3558-1678", "พิกัด_Lat": "14.626897", "พิกัด_Lng": "100.147166" }, "geometry": { "type": "Point", "coordinates": [ 100.147166, 14.626897 ] } },
{ "type": "Feature", "properties": { "กปภ_เขต": 3.000000, "กปภ_สาขา": "กปภ.สาขาเดิมบางนางบวช", "ที่อยู่": "1\/10 ม.2 ต.เดิมบาง อ.เดิมบางนางบวช ต.เดิมบาง จ.สุพรรณบุรี 72120", "เบอร์โทรศัพท์": "0-3557-8460", "แฟ๊กซ์": "0-3557-8460", "พิกัด_Lat": "14.879647", "พิกัด_Lng": "100.079390" }, "geometry": { "type": "Point", "coordinates": [ 100.07939, 14.879647 ] } },
{ "type": "Feature", "properties": { "กปภ_เขต": 3.000000, "กปภ_สาขา": "กปภ.สาขาด่านช้าง", "ที่อยู่": "300 หมู่ 1 ถ.อู่ทอง-บ้านไร่ ต.ด่านช้าง อ.ด่านช้าง จ.สุพรรณบุรี 72180", "เบอร์โทรศัพท์": "0-3559-5340", "แฟ๊กซ์": "0-3559-5340", "พิกัด_Lat": "14.832434", "พิกัด_Lng": "99.690589" }, "geometry": { "type": "Point", "coordinates": [ 99.690589, 14.832434 ] } },
{ "type": "Feature", "properties": { "กปภ_เขต": 3.000000, "กปภ_สาขา": "กปภ.สาขาอู่ทอง", "ที่อยู่": "574 ม.15 ต.จรเข้สามพัน อ.อู่ทอง จ.สุพรรณบุรี 72160", "เบอร์โทรศัพท์": "0-3555-1906, 0-3556-5059", "แฟ๊กซ์": "0-3556-5080", "พิกัด_Lat": "14.347396", "พิกัด_Lng": "99.870786" }, "geometry": { "type": "Point", "coordinates": [ 99.870786, 14.347396 ] } },
{ "type": "Feature", "properties": { "กปภ_เขต": 3.000000, "กปภ_สาขา": "กปภ.สาขากาญจนบุรี", "ที่อยู่": "1\/4 ถ.แม่น้ำแคว ต.ท่ามะขาม อ.เมือง จ.กาญจนบุรี 71120", "เบอร์โทรศัพท์": "0-3451-1520", "แฟ๊กซ์": "0-3452-1205", "พิกัด_Lat": "14.031790", "พิกัด_Lng": "99.521484" }, "geometry": { "type": "Point", "coordinates": [ 99.521484, 14.03179 ] } },
{ "type": "Feature", "properties": { "กปภ_เขต": 3.000000, "กปภ_สาขา": "กปภ.สาขาเลาขวัญ", "ที่อยู่": "401 ม.1 ต.เลาขวัญ อ.เลาขวัญ จ.กาญจนบุรี 71210", "เบอร์โทรศัพท์": "0-3457-6121", "แฟ๊กซ์": "0-3457-6121", "พิกัด_Lat": "14.597522", "พิกัด_Lng": "99.773469" }, "geometry": { "type": "Point", "coordinates": [ 99.773469, 14.597522 ] } },
{ "type": "Feature", "properties": { "กปภ_เขต": 3.000000, "กปภ_สาขา": "กปภ.สาขาพนมทวน", "ที่อยู่": "358 ม.8 ต.พนมทวน อ.พนมทวน จ.กาญจนบุรี 71140", "เบอร์โทรศัพท์": "0-3457-9248", "แฟ๊กซ์": "0-3457-9249", "พิกัด_Lat": "14.122221", "พิกัด_Lng": "99.685520" }, "geometry": { "type": "Point", "coordinates": [ 99.68552, 14.122221 ] } },
{ "type": "Feature", "properties": { "กปภ_เขต": 3.000000, "กปภ_สาขา": "กปภ.สาขาท่ามะกา", "ที่อยู่": "1\/58 ม.2 ซ.เทศบาล 22 ถ.แสงชูโต ต.ท่ามะกา อ.ท่ามะกา จ.กาญจนบุรี 71120", "เบอร์โทรศัพท์": "0-3454-1043", "แฟ๊กซ์": "0-3454-1043", "พิกัด_Lat": "13.920593", "พิกัด_Lng": "99.766725" }, "geometry": { "type": "Point", "coordinates": [ 99.766725, 13.920593 ] } },
{ "type": "Feature", "properties": { "กปภ_เขต": 3.000000, "กปภ_สาขา": "กปภ.สาขาเพชรบุรี", "ที่อยู่": "90 ม.1 ต.บ้านหม้อ อ.เมือง จ.เพชรบุรี 76000", "เบอร์โทรศัพท์": "0-3249-2301, 0-3249-2300", "แฟ๊กซ์": "0-3249-2302", "พิกัด_Lat": "13.076282", "พิกัด_Lng": "99.938216" }, "geometry": { "type": "Point", "coordinates": [ 99.938216, 13.076282 ] } },
{ "type": "Feature", "properties": { "กปภ_เขต": 3.000000, "กปภ_สาขา": "กปภ.สาขาประจวบคีรีขันธ์", "ที่อยู่": "58 ถ.ประจวบคีรีขันธ์ ต.ประจวบคีรีขันธ์ อ.เมือง จ.ประจวบคีรีขันธ์ 77000", "เบอร์โทรศัพท์": "0-3261-1051", "แฟ๊กซ์": "0-3260-3069", "พิกัด_Lat": "11.815169", "พิกัด_Lng": "99.791987" }, "geometry": { "type": "Point", "coordinates": [ 99.791987, 11.815169 ] } },
{ "type": "Feature", "properties": { "กปภ_เขต": 3.000000, "กปภ_สาขา": "กปภ.สาขาปราณบุรี", "ที่อยู่": "59 ม.2 ซ.รัฐบำรุง 7  ต.เขาน้อย  อ.ปราณบุรี  จ.ประจวบคีรีขันธ์ 77120", "เบอร์โทรศัพท์": "0-3262-2073", "แฟ๊กซ์": "0-3262-3707", "พิกัด_Lat": "12.383432", "พิกัด_Lng": "99.906331" }, "geometry": { "type": "Point", "coordinates": [ 99.906331, 12.383432 ] } },
{ "type": "Feature", "properties": { "กปภ_เขต": 3.000000, "กปภ_สาขา": "กปภ.สาขากุยบุรี", "ที่อยู่": "734 ม.7 ต.กุยบุรี อ.กุยบุรี จ.ประจวบคีรีขันธ์ 77150", "เบอร์โทรศัพท์": "0-3268-1524", "แฟ๊กซ์": "0-3268-1453", "พิกัด_Lat": "12.073422", "พิกัด_Lng": "99.857990" }, "geometry": { "type": "Point", "coordinates": [ 99.85799, 12.073422 ] } },
{ "type": "Feature", "properties": { "กปภ_เขต": 3.000000, "กปภ_สาขา": "กปภ.สาขาบางสะพาน", "ที่อยู่": "218 ม.1 ถ.ฝ่ายท่าหนองหัดไท ต.พงษ์ประศาสน์ อ.บางสะพาน จ.ประจวบคีรีขันธ์ 77140", "เบอร์โทรศัพท์": "0-3269-1883", "แฟ๊กซ์": "0-3269-1883", "พิกัด_Lat": "11.177408", "พิกัด_Lng": "99.492350" }, "geometry": { "type": "Point", "coordinates": [ 99.49235, 11.177408 ] } },
{ "type": "Feature", "properties": { "กปภ_เขต": 3.000000, "กปภ_สาขา": "กปภ.สาขานครปฐม", "ที่อยู่": "89\/14-15 ม.5 ต.สนามจันทร์ อ.เมืองนครปฐม จ.นครปฐม 73000", "เบอร์โทรศัพท์": "0-3424-2302", "แฟ๊กซ์": "0-3424-2302", "พิกัด_Lat": "13.792732", "พิกัด_Lng": "100.048202" }, "geometry": { "type": "Point", "coordinates": [ 100.048202, 13.792732 ] } },
{ "type": "Feature", "properties": { "กปภ_เขต": 4.000000, "กปภ_สาขา": "กปภ.สาขาสุราษฎร์ธานี(ชั้นพิเศษ)", "ที่อยู่": "86\/2 ม.2 ถ.ศรีวิชัย ต.มะขามเตี้ย อ.เมือง จ.สุราษฎร์ธานี 84000", "เบอร์โทรศัพท์": "0-7727-2683, 0-7727-3482-3", "แฟ๊กซ์": "0-7727-3483", "พิกัด_Lat": "9.114606", "พิกัด_Lng": "99.308874" }, "geometry": { "type": "Point", "coordinates": [ 99.308874, 9.114606 ] } },
{ "type": "Feature", "properties": { "กปภ_เขต": 4.000000, "กปภ_สาขา": "กปภ.สาขากาญจนดิษฐ์", "ที่อยู่": "232 ม.1 ต.กระแดะ อ.กาญจนดิษฐ์ จ.สุราษฎร์ธานี  84160", "เบอร์โทรศัพท์": "0-7737-9074", "แฟ๊กซ์": "0-7737-9074", "พิกัด_Lat": "9.165273", "พิกัด_Lng": "99.470165" }, "geometry": { "type": "Point", "coordinates": [ 99.470165, 9.165273 ] } },
{ "type": "Feature", "properties": { "กปภ_เขต": 4.000000, "กปภ_สาขา": "กปภ.สาขาเกาะสมุย", "ที่อยู่": "55\/6 ม.2 ต.อ่างทอง อ.เกาะสมุย จ.สุราษฎร์ธานี 84140", "เบอร์โทรศัพท์": "0-7742-0138, 0-7742-0222", "แฟ๊กซ์": "0-7742-0222", "พิกัด_Lat": "9.520360", "พิกัด_Lng": "99.955709" }, "geometry": { "type": "Point", "coordinates": [ 99.955709, 9.52036 ] } },
{ "type": "Feature", "properties": { "กปภ_เขต": 4.000000, "กปภ_สาขา": "กปภ.สาขาเวียงสระ", "ที่อยู่": "111\/1 ม.1  ต.ทุ่งหลวง อ.เวียงสระ จ.สุราษฎร์ธานี 84190", "เบอร์โทรศัพท์": "0-7736-1110", "แฟ๊กซ์": "0-7736-2095", "พิกัด_Lat": "8.619267", "พิกัด_Lng": "99.326292" }, "geometry": { "type": "Point", "coordinates": [ 99.326292, 8.619267 ] } },
{ "type": "Feature", "properties": { "กปภ_เขต": 4.000000, "กปภ_สาขา": "กปภ.สาขาบ้านตาขุน", "ที่อยู่": "90\/18 ม.4 ถ.สุราษฏร์-ตะกั่วป่า ต.เขาวง อ.บ้านตาขุน จ.สุราษฎร์ธานี 84230", "เบอร์โทรศัพท์": "0-7739-7325", "แฟ๊กซ์": "0-7739-7325", "พิกัด_Lat": "8.901000", "พิกัด_Lng": "98.884579" }, "geometry": { "type": "Point", "coordinates": [ 98.884579, 8.901 ] } },
{ "type": "Feature", "properties": { "กปภ_เขต": 4.000000, "กปภ_สาขา": "กปภ.สาขาไชยา", "ที่อยู่": "361 ม.1 ถ.รักษ์นรกิจ ต.ตลาดไชยา อ.ไชยา จ.สุราษฎร์ธานี 84110", "เบอร์โทรศัพท์": "0-7743-1591", "แฟ๊กซ์": "0-7743-5394", "พิกัด_Lat": "9.386680", "พิกัด_Lng": "99.205761" }, "geometry": { "type": "Point", "coordinates": [ 99.205761, 9.38668 ] } },
{ "type": "Feature", "properties": { "กปภ_เขต": 4.000000, "กปภ_สาขา": "กปภ.สาขาชุมพร", "ที่อยู่": "259\/1 ถ.ประชาอุทิศ ต.ท่าตะเภา อ.เมือง จ.ชุมพร 86000", "เบอร์โทรศัพท์": "0-7751-1159", "แฟ๊กซ์": "0-7750-3742 ต่อ 125", "พิกัด_Lat": "10.495235", "พิกัด_Lng": "99.180292" }, "geometry": { "type": "Point", "coordinates": [ 99.180292, 10.495235 ] } },
{ "type": "Feature", "properties": { "กปภ_เขต": 4.000000, "กปภ_สาขา": "กปภ.สาขาหลังสวน", "ที่อยู่": "1 ถ.เพชรเกษม ต.ขันเงิน อ.หลังสวน จ.ชุมพร 86110", "เบอร์โทรศัพท์": "0-7754-1172", "แฟ๊กซ์": "0-7754-1271", "พิกัด_Lat": "9.952509", "พิกัด_Lng": "99.064511" }, "geometry": { "type": "Point", "coordinates": [ 99.064511, 9.952509 ] } },
{ "type": "Feature", "properties": { "กปภ_เขต": 4.000000, "กปภ_สาขา": "กปภ.สาขาท่าแซะ", "ที่อยู่": "39\/1 ม.1 ต.ท่าแซะ อ.ท่าแซะ จ.ชุมพร 86140", "เบอร์โทรศัพท์": "0-7759-9610", "แฟ๊กซ์": "0-7759-9610", "พิกัด_Lat": "10.661109", "พิกัด_Lng": "99.190440" }, "geometry": { "type": "Point", "coordinates": [ 99.19044, 10.661109 ] } },
{ "type": "Feature", "properties": { "กปภ_เขต": 4.000000, "กปภ_สาขา": "กปภ.สาขาระนอง", "ที่อยู่": "304 ถ.ท่าเมือง ต.เขานิเวศน์ อ.เมือง จ.ระนอง 85000", "เบอร์โทรศัพท์": "0-7781-1192 ต่อ 111", "แฟ๊กซ์": "0-7781-1192 ต่อ 109", "พิกัด_Lat": "9.956486", "พิกัด_Lng": "98.633156" }, "geometry": { "type": "Point", "coordinates": [ 98.633156, 9.956486 ] } },
{ "type": "Feature", "properties": { "กปภ_เขต": 4.000000, "กปภ_สาขา": "กปภ.สาขาพังงา", "ที่อยู่": "24 ม.1 ต.ถ้ำน้ำผุด อ.เมือง จ.พังงา 82000", "เบอร์โทรศัพท์": "0-7641-2156", "แฟ๊กซ์": "0-7641-1156", "พิกัด_Lat": "8.472801", "พิกัด_Lng": "98.528796" }, "geometry": { "type": "Point", "coordinates": [ 98.528796, 8.472801 ] } },
{ "type": "Feature", "properties": { "กปภ_เขต": 4.000000, "กปภ_สาขา": "กปภ.สาขาตะกั่วป่า", "ที่อยู่": "3\/4  ถ.ราษฎรบำรุง ต.ตะกั่วป่า อ.ตะกั่วป่า จ.พังงา 82110", "เบอร์โทรศัพท์": "0-7642-1115", "แฟ๊กซ์": "0-7643-1328", "พิกัด_Lat": "8.852327", "พิกัด_Lng": "98.344350" }, "geometry": { "type": "Point", "coordinates": [ 98.34435, 8.852327 ] } },
{ "type": "Feature", "properties": { "กปภ_เขต": 4.000000, "กปภ_สาขา": "กปภ.สาขาท้ายเหมือง", "ที่อยู่": "7\/1 ม.2 ต.ท้ายเหมือง อ.ท้ายเหมือง จ.พังงา 82120", "เบอร์โทรศัพท์": "0-7657-1452", "แฟ๊กซ์": "0-7657-1532", "พิกัด_Lat": "8.384467", "พิกัด_Lng": "98.274237" }, "geometry": { "type": "Point", "coordinates": [ 98.274237, 8.384467 ] } },
{ "type": "Feature", "properties": { "กปภ_เขต": 4.000000, "กปภ_สาขา": "กปภ.สาขาภูเก็ต", "ที่อยู่": "106\/137 ม.7 ถ.วิชิตสงคราม ต.กะทู้ อ.กะทู้ จ.ภูเก็ต 83120", "เบอร์โทรศัพท์": "0-7631-9173", "แฟ๊กซ์": "0-7631-9176", "พิกัด_Lat": "7.892758", "พิกัด_Lng": "98.339867" }, "geometry": { "type": "Point", "coordinates": [ 98.339867, 7.892758 ] } },
{ "type": "Feature", "properties": { "กปภ_เขต": 4.000000, "กปภ_สาขา": "กปภ.สาขากระบี่", "ที่อยู่": "93 ถ.กระบี่ ต.ปากน้ำ อ.เมือง จ.กระบี่ 81000", "เบอร์โทรศัพท์": "0-7561-1354", "แฟ๊กซ์": "0-7561-2982", "พิกัด_Lat": "8.059326", "พิกัด_Lng": "98.911556" }, "geometry": { "type": "Point", "coordinates": [ 98.911556, 8.059326 ] } },
{ "type": "Feature", "properties": { "กปภ_เขต": 4.000000, "กปภ_สาขา": "กปภ.สาขาอ่าวลึก", "ที่อยู่": "160\/2 ม.2 ถ.อ่าวลึก-แหลมสัก อ.อ่าวลึก จ.กระบี่ 81110", "เบอร์โทรศัพท์": "0-7568-1156", "แฟ๊กซ์": "0-7568-1875", "พิกัด_Lat": "8.386916", "พิกัด_Lng": "98.729407" }, "geometry": { "type": "Point", "coordinates": [ 98.729407, 8.386916 ] } },
{ "type": "Feature", "properties": { "กปภ_เขต": 4.000000, "กปภ_สาขา": "กปภ.สาขาทุ่งสง", "ที่อยู่": "200 ถ.ทุ่งสง-นครศรีฯ ม.7 ต.ถ้ำใหญ่ อ.ทุ่งสง จ.นครศรีธรรมราช 80110", "เบอร์โทรศัพท์": "0-7541-1339", "แฟ๊กซ์": "0-7541-1584", "พิกัด_Lat": "8.166397", "พิกัด_Lng": "99.707051" }, "geometry": { "type": "Point", "coordinates": [ 99.707051, 8.166397 ] } },
{ "type": "Feature", "properties": { "กปภ_เขต": 4.000000, "กปภ_สาขา": "กปภ.สาขาชะอวด", "ที่อยู่": "11 ม.1 ต.ชะอวด อ.ชะอวด จ.นครศรีธรรมราช 80180", "เบอร์โทรศัพท์": "0-7538-1001", "แฟ๊กซ์": "0-7538-1001", "พิกัด_Lat": "7.973088", "พิกัด_Lng": "99.990674" }, "geometry": { "type": "Point", "coordinates": [ 99.990674, 7.973088 ] } },
{ "type": "Feature", "properties": { "กปภ_เขต": 4.000000, "กปภ_สาขา": "กปภ.สาขาปากพนัง", "ที่อยู่": "291 ถ.สุนอนันต์ ต.ปากพนังฝั่งตะวันตก อ.ปากพนัง จ.นครศรีธรรมราช 80140", "เบอร์โทรศัพท์": "0-7544-3112", "แฟ๊กซ์": "0-7544-3113", "พิกัด_Lat": "8.345924", "พิกัด_Lng": "100.192513" }, "geometry": { "type": "Point", "coordinates": [ 100.192513, 8.345924 ] } },
{ "type": "Feature", "properties": { "กปภ_เขต": 4.000000, "กปภ_สาขา": "กปภ.สาขาจันดี", "ที่อยู่": "300 ม.3 ถ.จันดี-สะกา ต.จันดี อ.ฉวาง จ.นครศรีธรรมราช 80250", "เบอร์โทรศัพท์": "0-7544-5739", "แฟ๊กซ์": "0-7544-5741", "พิกัด_Lat": "8.380564", "พิกัด_Lng": "99.551281" }, "geometry": { "type": "Point", "coordinates": [ 99.551281, 8.380564 ] } },
{ "type": "Feature", "properties": { "กปภ_เขต": 4.000000, "กปภ_สาขา": "กปภ.สาขาขนอม", "ที่อยู่": "36 ม.9 ทางไปหาดในเพลา ต.ขนอม อ.ขนอม จ.นครศรีธรรมราช 80210", "เบอร์โทรศัพท์": "0-7552-8201", "แฟ๊กซ์": "0-7552-8710", "พิกัด_Lat": "9.158280", "พิกัด_Lng": "99.853702" }, "geometry": { "type": "Point", "coordinates": [ 99.853702, 9.15828 ] } },
{ "type": "Feature", "properties": { "กปภ_เขต": 4.000000, "กปภ_สาขา": "กปภ.สาขานครศรีธรรมราช", "ที่อยู่": "151 หมู่ 3 ศูนย์ราชการนาสาร ต.นาสาร อ.พระพรพหม จ.นครศรีธรรมราช 80000", "เบอร์โทรศัพท์": "0-7537-8607", "แฟ๊กซ์": "0-7537-8608", "พิกัด_Lat": "8.357826", "พิกัด_Lng": "99.921168" }, "geometry": { "type": "Point", "coordinates": [ 99.921168, 8.357826 ] } },
{ "type": "Feature", "properties": { "กปภ_เขต": 4.000000, "กปภ_สาขา": "กปภ.สาขาเกาะพะงัน", "ที่อยู่": "114 ม.3 ต.เกาะพะงัน อ.เกาะพะงัน จ.สุราษฎร์ธานี 84280", "เบอร์โทรศัพท์": "0-7737-7477", "แฟ๊กซ์": "0-7737-7477", "พิกัด_Lat": "9.711124", "พิกัด_Lng": "99.990581" }, "geometry": { "type": "Point", "coordinates": [ 99.990581, 9.711124 ] } },
{ "type": "Feature", "properties": { "กปภ_เขต": 4.000000, "กปภ_สาขา": "กปภ.สาขาคลองท่อม", "ที่อยู่": "199\/14 ม.2 ต.คลองท่อมใต้ อ.คลองท่อม จ.กระบี่ 81102", "เบอร์โทรศัพท์": "0-7569-9446, 0-7569-9447", "แฟ๊กซ์": "0-7569-9447", "พิกัด_Lat": "7.944574", "พิกัด_Lng": "99.155392" }, "geometry": { "type": "Point", "coordinates": [ 99.155392, 7.944574 ] } },
{ "type": "Feature", "properties": { "กปภ_เขต": 5.000000, "กปภ_สาขา": "กปภ.สาขาสงขลา", "ที่อยู่": "145 ม.10 หน้ามหาวิทยาลัยราชภัฏสงขลา ถ.กาญจนวนิช ต.เขารูปช้าง อ.เมือง จ.สงขลา 90000", "เบอร์โทรศัพท์": "0-7455-0693-5", "แฟ๊กซ์": "0-7444-3861", "พิกัด_Lat": "7.166323", "พิกัด_Lng": "100.609217" }, "geometry": { "type": "Point", "coordinates": [ 100.609217, 7.166323 ] } },
{ "type": "Feature", "properties": { "กปภ_เขต": 5.000000, "กปภ_สาขา": "กปภ.สาขาหาดใหญ่(ชั้นพิเศษ)", "ที่อยู่": "243 ถ. พลพิชัย ต.หาดใหญ่ อ.หาดใหญ่ จ.สงขลา 90110", "เบอร์โทรศัพท์": "0-7459-8093, 0-7459-8098, 0-7459-8101", "แฟ๊กซ์": "0-7459-8102", "พิกัด_Lat": "6.987763", "พิกัด_Lng": "100.466654" }, "geometry": { "type": "Point", "coordinates": [ 100.466654, 6.987763 ] } },
{ "type": "Feature", "properties": { "กปภ_เขต": 5.000000, "กปภ_สาขา": "กปภ.สาขาสะเดา", "ที่อยู่": "13 ม.1 ถ.ประชาบำรุง ต.สะเดา อ.สะเดา จ.สงขลา 90120", "เบอร์โทรศัพท์": "0-7441-1057", "แฟ๊กซ์": "0-7441-1057", "พิกัด_Lat": "6.634549", "พิกัด_Lng": "100.424470" }, "geometry": { "type": "Point", "coordinates": [ 100.42447, 6.634549 ] } },
{ "type": "Feature", "properties": { "กปภ_เขต": 5.000000, "กปภ_สาขา": "กปภ.สาขานาทวี", "ที่อยู่": "8\/2 ม.1 ถ.นาทวี-ประกอบ ต.นาทวี อ.นาทวี จ.สงขลา 90160", "เบอร์โทรศัพท์": "0-7437-1175", "แฟ๊กซ์": "0-7437-1175", "พิกัด_Lat": "6.735115", "พิกัด_Lng": "100.692496" }, "geometry": { "type": "Point", "coordinates": [ 100.692496, 6.735115 ] } },
{ "type": "Feature", "properties": { "กปภ_เขต": 5.000000, "กปภ_สาขา": "กปภ.สาขาระโนด", "ที่อยู่": "41 ถนนเทศบาล12 ต.ระโนด อ.ระโนด จ.สงขลา 90140", "เบอร์โทรศัพท์": "0-7439-2232", "แฟ๊กซ์": "0-7439-2232", "พิกัด_Lat": "7.776712", "พิกัด_Lng": "100.314437" }, "geometry": { "type": "Point", "coordinates": [ 100.314437, 7.776712 ] } },
{ "type": "Feature", "properties": { "กปภ_เขต": 5.000000, "กปภ_สาขา": "กปภ.สาขาพัทลุง", "ที่อยู่": "61 ถ.คณาศัย ต.คูหาสวรรค์ อ.เมือง จ.พัทลุง 93000", "เบอร์โทรศัพท์": "0-7461-3167", "แฟ๊กซ์": "0-7461-4217", "พิกัด_Lat": "7.621137", "พิกัด_Lng": "100.074295" }, "geometry": { "type": "Point", "coordinates": [ 100.074295, 7.621137 ] } },
{ "type": "Feature", "properties": { "กปภ_เขต": 5.000000, "กปภ_สาขา": "กปภ.สาขาเขาชัยสน", "ที่อยู่": "357 ม.3 ซ.สุขาภิบาล6 ถ.สุขาภิบาล ต.เขาชัยสน จ.พัทลุง 93130", "เบอร์โทรศัพท์": "0-7469-1165", "แฟ๊กซ์": "0-7469-1165", "พิกัด_Lat": "7.458777", "พิกัด_Lng": "100.136761" }, "geometry": { "type": "Point", "coordinates": [ 100.136761, 7.458777 ] } },
{ "type": "Feature", "properties": { "กปภ_เขต": 5.000000, "กปภ_สาขา": "กปภ.สาขาตรัง", "ที่อยู่": "158 ถ.ท่ากลาง ต.ทับเที่ยง อ.เมือง จ.ตรัง 92000", "เบอร์โทรศัพท์": "0-7521-1326, 0-7521-8216", "แฟ๊กซ์": "0-7521-1326", "พิกัด_Lat": "7.561433", "พิกัด_Lng": "99.598591" }, "geometry": { "type": "Point", "coordinates": [ 99.598591, 7.561433 ] } },
{ "type": "Feature", "properties": { "กปภ_เขต": 5.000000, "กปภ_สาขา": "กปภ.สาขาห้วยยอด", "ที่อยู่": "812 ถ.เพชรเกษม ต.ห้วยยอด อ.ห้วยยอด จ.ตรัง 92130", "เบอร์โทรศัพท์": "0-7527-1053", "แฟ๊กซ์": "0-7527-1046", "พิกัด_Lat": "7.796909", "พิกัด_Lng": "99.623286" }, "geometry": { "type": "Point", "coordinates": [ 99.623286, 7.796909 ] } },
{ "type": "Feature", "properties": { "กปภ_เขต": 5.000000, "กปภ_สาขา": "กปภ.สาขาย่านตาขาว", "ที่อยู่": "3 ถ.พิกุลทอง ต.ย่านตาขาว อ.ย่านตาขาว จังหวัดตรัง 92140", "เบอร์โทรศัพท์": "0-7528-2161, 0-7528-1466", "แฟ๊กซ์": "0-7528-2161", "พิกัด_Lat": "7.379612", "พิกัด_Lng": "99.675125" }, "geometry": { "type": "Point", "coordinates": [ 99.675125, 7.379612 ] } },
{ "type": "Feature", "properties": { "กปภ_เขต": 5.000000, "กปภ_สาขา": "กปภ.สาขากันตัง", "ที่อยู่": "2 ถ.ป่าไม้ ต.กันตัง อ.กันตัง จ.ตรัง 92110", "เบอร์โทรศัพท์": "0-7525-1077", "แฟ๊กซ์": "0-7525-2254", "พิกัด_Lat": "7.406334", "พิกัด_Lng": "99.520042" }, "geometry": { "type": "Point", "coordinates": [ 99.520042, 7.406334 ] } },
{ "type": "Feature", "properties": { "กปภ_เขต": 5.000000, "กปภ_สาขา": "กปภ.สาขาสตูล", "ที่อยู่": "206 ม.2 ถ.คลองขุด-นาแค ต.คลองขุด อ.เมือง จ.สตูล 91000", "เบอร์โทรศัพท์": "0-7471-1022", "แฟ๊กซ์": "0-7473-0772, 0-7471-1022", "พิกัด_Lat": "6.648786", "พิกัด_Lng": "100.083312" }, "geometry": { "type": "Point", "coordinates": [ 100.083312, 6.648786 ] } },
{ "type": "Feature", "properties": { "กปภ_เขต": 5.000000, "กปภ_สาขา": "กปภ.สาขาละงู", "ที่อยู่": "136 ม.12 บ้านในเมือง อำเภอละงู จังหวัดสตูล 91110", "เบอร์โทรศัพท์": "074-773098", "แฟ๊กซ์": "0-7477-3098", "พิกัด_Lat": "6.864611", "พิกัด_Lng": "99.798905" }, "geometry": { "type": "Point", "coordinates": [ 99.798905, 6.864611 ] } },
{ "type": "Feature", "properties": { "กปภ_เขต": 5.000000, "กปภ_สาขา": "กปภ.สาขายะหา", "ที่อยู่": "ม.2 ถ.สันติราษฎร์ ต.ยะหา อ.ยะหา จ.ยะลา 95120", "เบอร์โทรศัพท์": "0-7329-1125", "แฟ๊กซ์": "0-7329-1125", "พิกัด_Lat": "6.477951", "พิกัด_Lng": "101.135864" }, "geometry": { "type": "Point", "coordinates": [ 101.135864, 6.477951 ] } },
{ "type": "Feature", "properties": { "กปภ_เขต": 5.000000, "กปภ_สาขา": "กปภ.สาขาเบตง", "ที่อยู่": "331 ถ.สุขยางค์ ต.เบตง อ.เบตง จ.ยะลา 95110", "เบอร์โทรศัพท์": "0-7323-0451", "แฟ๊กซ์": "0-7323-2298", "พิกัด_Lat": "5.772603", "พิกัด_Lng": "101.065372" }, "geometry": { "type": "Point", "coordinates": [ 101.065372, 5.772603 ] } },
{ "type": "Feature", "properties": { "กปภ_เขต": 5.000000, "กปภ_สาขา": "กปภ.สาขาสายบุรี", "ที่อยู่": "154\/ 7 ถ.ท่าเสด็จ ต.ตะลุบัน อ.สายบุรี จ.ปัตตานี 94110", "เบอร์โทรศัพท์": "0-7341-1006", "แฟ๊กซ์": "0-7341-1813", "พิกัด_Lat": "6.697444", "พิกัด_Lng": "101.620008" }, "geometry": { "type": "Point", "coordinates": [ 101.620008, 6.697444 ] } },
{ "type": "Feature", "properties": { "กปภ_เขต": 5.000000, "กปภ_สาขา": "กปภ.สาขานราธิวาส", "ที่อยู่": "64 ม.8 ถ.เพชรเกษม ต.ลำภู อ.เมือง จ.นราธิวาส 96000", "เบอร์โทรศัพท์": "0-7353-2143", "แฟ๊กซ์": "0-7353-2145", "พิกัด_Lat": "6.411842", "พิกัด_Lng": "101.804638" }, "geometry": { "type": "Point", "coordinates": [ 101.804638, 6.411842 ] } },
{ "type": "Feature", "properties": { "กปภ_เขต": 5.000000, "กปภ_สาขา": "กปภ.สาขารือเสาะ", "ที่อยู่": "184 ม.10 ถ.รือเสาะสนองกิจ ต.รือเสาะ อ.รือเสาะ จ.นราธิวาส 96150", "เบอร์โทรศัพท์": "0-7357-1189", "แฟ๊กซ์": "0-7357-1189", "พิกัด_Lat": "6.379242", "พิกัด_Lng": "101.509048" }, "geometry": { "type": "Point", "coordinates": [ 101.509048, 6.379242 ] } },
{ "type": "Feature", "properties": { "กปภ_เขต": 5.000000, "กปภ_สาขา": "กปภ.สาขาสุไหงโก-ลก", "ที่อยู่": "119 ถ.ประเวศชลธี ต.สุไหงโก-ลก อ.สุไหงโก-ลก จ.นราธิวาส 96120", "เบอร์โทรศัพท์": "0-7361-1156", "แฟ๊กซ์": "0-7361-5824", "พิกัด_Lat": "6.019649", "พิกัด_Lng": "101.969914" }, "geometry": { "type": "Point", "coordinates": [ 101.969914, 6.019649 ] } },
{ "type": "Feature", "properties": { "กปภ_เขต": 5.000000, "กปภ_สาขา": "กปภ.สาขาพังลา", "ที่อยู่": "256 ม.5 ถ.กาญจนวานิช ต.พังลา อ.สะเดา จ.สงขลา 90170", "เบอร์โทรศัพท์": "0-7454-1091", "แฟ๊กซ์": "0-7454-1091", "พิกัด_Lat": "6.780485", "พิกัด_Lng": "100.452589" }, "geometry": { "type": "Point", "coordinates": [ 100.452589, 6.780485 ] } },
{ "type": "Feature", "properties": { "กปภ_เขต": 6.000000, "กปภ_สาขา": "กปภ.สาขาขอนแก่น(ชั้นพิเศษ)", "ที่อยู่": "3 ถ.รื่นรมย์ ต.ในเมือง อ.เมือง จ.ขอนแก่น 40000", "เบอร์โทรศัพท์": "0-43228-313, 0-4322-4022, 0-43221-218", "แฟ๊กซ์": "0-4322-4161", "พิกัด_Lat": "16.425260", "พิกัด_Lng": "102.834035" }, "geometry": { "type": "Point", "coordinates": [ 102.834035, 16.42526 ] } },
{ "type": "Feature", "properties": { "กปภ_เขต": 6.000000, "กปภ_สาขา": "กปภ.สาขาบ้านไผ่", "ที่อยู่": "647\/11 ม.3 ถ.เจนจบทิศ ต.ในเมือง อ.บ้านไผ่ จ.ขอนแก่น 40110", "เบอร์โทรศัพท์": "0-4327-2202-3", "แฟ๊กซ์": "0-4327-2203", "พิกัด_Lat": "16.067716", "พิกัด_Lng": "102.733240" }, "geometry": { "type": "Point", "coordinates": [ 102.73324, 16.067716 ] } },
{ "type": "Feature", "properties": { "กปภ_เขต": 6.000000, "กปภ_สาขา": "กปภ.สาขาชุมแพ", "ที่อยู่": "294\/2 ม.1 ถ.โพธิ์ธาตุ ต.ชุมแพ อ.ชุมแพ จ.ขอนแก่น 40130", "เบอร์โทรศัพท์": "0-4331-1211", "แฟ๊กซ์": "-", "พิกัด_Lat": "16.542415", "พิกัด_Lng": "102.097750" }, "geometry": { "type": "Point", "coordinates": [ 102.09775, 16.542415 ] } },
{ "type": "Feature", "properties": { "กปภ_เขต": 6.000000, "กปภ_สาขา": "กปภ.สาขาน้ำพอง", "ที่อยู่": "209 ม.4 ถ.มิตรภาพ ต.น้ำพอง อ.น้ำพอง จ.ขอนแก่น 40310", "เบอร์โทรศัพท์": "0-4344-1177", "แฟ๊กซ์": "0-4344-1177", "พิกัด_Lat": "16.730960", "พิกัด_Lng": "102.801745" }, "geometry": { "type": "Point", "coordinates": [ 102.801745, 16.73096 ] } },
{ "type": "Feature", "properties": { "กปภ_เขต": 6.000000, "กปภ_สาขา": "กปภ.สาขาชนบท", "ที่อยู่": "93 ม.11 ถ.แจ้งสนิท ต.ชนบท อ.ชนบท จ.ขอนแก่น 40180", "เบอร์โทรศัพท์": "0-4328-6209", "แฟ๊กซ์": "0-4327-2696", "พิกัด_Lat": "16.091621", "พิกัด_Lng": "102.617492" }, "geometry": { "type": "Point", "coordinates": [ 102.617492, 16.091621 ] } },
{ "type": "Feature", "properties": { "กปภ_เขต": 6.000000, "กปภ_สาขา": "กปภ.สาขากระนวน", "ที่อยู่": "201 ม.6 ถ.อภัย ต.หนองโก อ.กระนวน จ.ขอนแก่น 40170", "เบอร์โทรศัพท์": "0-4325-1397", "แฟ๊กซ์": "0-4370-0027", "พิกัด_Lat": "16.705139", "พิกัด_Lng": "103.077659" }, "geometry": { "type": "Point", "coordinates": [ 103.077659, 16.705139 ] } },
{ "type": "Feature", "properties": { "กปภ_เขต": 6.000000, "กปภ_สาขา": "กปภ.สาขาหนองเรือ", "ที่อยู่": "416 ม.13 ถนนมะลิวัลย์ ต.หนองเรือ อ.หนองเรือ จ.ขอนแก่น 40210", "เบอร์โทรศัพท์": "0-4329-4838", "แฟ๊กซ์": "0-4329-4807", "พิกัด_Lat": "16.492275", "พิกัด_Lng": "102.432589" }, "geometry": { "type": "Point", "coordinates": [ 102.432589, 16.492275 ] } },
{ "type": "Feature", "properties": { "กปภ_เขต": 6.000000, "กปภ_สาขา": "กปภ.สาขาเมืองพล", "ที่อยู่": "22\/13 ถ.เจริญสุข  ต.เมืองพล  อ.พล  จ.ขอนแก่น 40120", "เบอร์โทรศัพท์": "0-4341-4207", "แฟ๊กซ์": "-", "พิกัด_Lat": "15.799612", "พิกัด_Lng": "102.605008" }, "geometry": { "type": "Point", "coordinates": [ 102.605008, 15.799612 ] } },
{ "type": "Feature", "properties": { "กปภ_เขต": 6.000000, "กปภ_สาขา": "กปภ.สาขากาฬสินธุ์", "ที่อยู่": "1\/16  ถ.ถีนานนท์ ต.ในเมือง อ.เมือง จ.กาฬสินธุ์ 46000", "เบอร์โทรศัพท์": "0-4381-1611", "แฟ๊กซ์": "0-4381-1611", "พิกัด_Lat": "16.437288", "พิกัด_Lng": "103.514896" }, "geometry": { "type": "Point", "coordinates": [ 103.514896, 16.437288 ] } },
{ "type": "Feature", "properties": { "กปภ_เขต": 6.000000, "กปภ_สาขา": "กปภ.สาขากุฉินารายณ์", "ที่อยู่": "493 ม.13 ถ.บัวขาว-นามน ต.บัวขาว อ.กุฉินารายณ์ จ.กาฬสินธุ์ 46110", "เบอร์โทรศัพท์": "0-4385-1323", "แฟ๊กซ์": "0-4385-1323", "พิกัด_Lat": "16.537106", "พิกัด_Lng": "104.046331" }, "geometry": { "type": "Point", "coordinates": [ 104.046331, 16.537106 ] } },
{ "type": "Feature", "properties": { "กปภ_เขต": 6.000000, "กปภ_สาขา": "กปภ.สาขาสมเด็จ", "ที่อยู่": "372 ม.2 ถ.ธันวาคม อ.สมเด็จ จ.กาฬสินธุ์ 46150", "เบอร์โทรศัพท์": "0-4386-1133", "แฟ๊กซ์": "-", "พิกัด_Lat": "16.703110", "พิกัด_Lng": "103.751853" }, "geometry": { "type": "Point", "coordinates": [ 103.751853, 16.70311 ] } },
{ "type": "Feature", "properties": { "กปภ_เขต": 6.000000, "กปภ_สาขา": "กปภ.สาขามหาสารคาม", "ที่อยู่": "654 ถ.มหาชัยดำริห์ ต.ตลาด อ.เมือง จ.มหาสารคาม 44000", "เบอร์โทรศัพท์": "0-4371-1126", "แฟ๊กซ์": "0-4371-1127", "พิกัด_Lat": "16.189418", "พิกัด_Lng": "103.300137" }, "geometry": { "type": "Point", "coordinates": [ 103.300137, 16.189418 ] } },
{ "type": "Feature", "properties": { "กปภ_เขต": 6.000000, "กปภ_สาขา": "กปภ.สาขาพยัคฆภูมิพิสัย", "ที่อยู่": "121 ม.5 ถ.พยัคฆภูพิสัย-สตึก ต.เมืองเสือ อ.พยัคฆภูมิพิสัย จ.มหาสารคาม 44110", "เบอร์โทรศัพท์": "0-4379-1566", "แฟ๊กซ์": "0-4379-1566", "พิกัด_Lat": "15.494924", "พิกัด_Lng": "103.200434" }, "geometry": { "type": "Point", "coordinates": [ 103.200434, 15.494924 ] } },
{ "type": "Feature", "properties": { "กปภ_เขต": 6.000000, "กปภ_สาขา": "กปภ.สาขาชัยภูมิ", "ที่อยู่": "183 ถ.ชัยภูมิ - สีคิ้ว ต.ในเมือง อ.เมือง จ.ชัยภูมิ 36000", "เบอร์โทรศัพท์": "0-4481-1890, 0-4481-1889", "แฟ๊กซ์": "0-4481-1890", "พิกัด_Lat": "15.789688", "พิกัด_Lng": "102.029677" }, "geometry": { "type": "Point", "coordinates": [ 102.029677, 15.789688 ] } },
{ "type": "Feature", "properties": { "กปภ_เขต": 6.000000, "กปภ_สาขา": "กปภ.สาขาแก้งคร้อ", "ที่อยู่": "ม.7 ถ.แกร้งคร้อ-นาแก ต.ช่องสามหมอ อ.แก้งคร้อ จ.ชัยภูมิ 36150", "เบอร์โทรศัพท์": "0-4488-1012", "แฟ๊กซ์": "-", "พิกัด_Lat": "16.088158", "พิกัด_Lng": "102.252484" }, "geometry": { "type": "Point", "coordinates": [ 102.252484, 16.088158 ] } },
{ "type": "Feature", "properties": { "กปภ_เขต": 6.000000, "กปภ_สาขา": "กปภ.สาขาจัตุรัส", "ที่อยู่": "70 ถ.ชัยภูมิ-สีคิ้ว ต.หนองบัวใหญ่ อ.จัตุจัส จ.ชัยภูมิ 36130", "เบอร์โทรศัพท์": "0-4485-1300", "แฟ๊กซ์": "-", "พิกัด_Lat": "15.575244", "พิกัด_Lng": "101.862050" }, "geometry": { "type": "Point", "coordinates": [ 101.86205, 15.575244 ] } },
{ "type": "Feature", "properties": { "กปภ_เขต": 6.000000, "กปภ_สาขา": "กปภ.สาขาหนองบัวแดง", "ที่อยู่": "33 ม.9 ถ.หลวงศิริ ต.หนองบัวแดง อ.หนองบัวแดง จ.ชัยภูมิ 36210", "เบอร์โทรศัพท์": "0-4487-2115", "แฟ๊กซ์": "0-4487-2115", "พิกัด_Lat": "16.079670", "พิกัด_Lng": "101.799427" }, "geometry": { "type": "Point", "coordinates": [ 101.799427, 16.07967 ] } },
{ "type": "Feature", "properties": { "กปภ_เขต": 6.000000, "กปภ_สาขา": "กปภ.สาขาภูเขียว", "ที่อยู่": "486 ม.2 ต.ผักปัง อ.ภูเขียว จ.ชัยภูมิ 36110", "เบอร์โทรศัพท์": "0-4486-1353", "แฟ๊กซ์": "0-4486-1353", "พิกัด_Lat": "16.369638", "พิกัด_Lng": "102.136619" }, "geometry": { "type": "Point", "coordinates": [ 102.136619, 16.369638 ] } },
{ "type": "Feature", "properties": { "กปภ_เขต": 6.000000, "กปภ_สาขา": "กปภ.สาขาบำเหน็จณรงค์", "ที่อยู่": "6 ม.15 ต.บ้านชวน อ.บำเหน็จณรงค์ จ.ชัยภูมิ 36160", "เบอร์โทรศัพท์": "-", "แฟ๊กซ์": "-", "พิกัด_Lat": "15.522191", "พิกัด_Lng": "101.671984" }, "geometry": { "type": "Point", "coordinates": [ 101.671984, 15.522191 ] } },
{ "type": "Feature", "properties": { "กปภ_เขต": 6.000000, "กปภ_สาขา": "กปภ.สาขาร้อยเอ็ด", "ที่อยู่": "175 ถ.รณชัยชาญยุทธ ต.ในเมือง อ.เมืองร้อยเอ็ด จ.ร้อยเอ็ด 45000", "เบอร์โทรศัพท์": "0-4351-1513, 0-4351-5601", "แฟ๊กซ์": "0-4551-5601", "พิกัด_Lat": "16.048054", "พิกัด_Lng": "103.658257" }, "geometry": { "type": "Point", "coordinates": [ 103.658257, 16.048054 ] } },
{ "type": "Feature", "properties": { "กปภ_เขต": 6.000000, "กปภ_สาขา": "กปภ.สาขาโพนทอง", "ที่อยู่": "175 ม.10 ถ.ทางหลวงหมายเลข 2046 ต.สระนกแก้ว อ.โพนทอง จ.ร้อยเอ็ด 45110", "เบอร์โทรศัพท์": "0-4357-1167", "แฟ๊กซ์": "-", "พิกัด_Lat": "16.293550", "พิกัด_Lng": "103.975727" }, "geometry": { "type": "Point", "coordinates": [ 103.975727, 16.29355 ] } },
{ "type": "Feature", "properties": { "กปภ_เขต": 6.000000, "กปภ_สาขา": "กปภ.สาขาสุวรรณภูมิ", "ที่อยู่": "ถ.ปัทมานนท์ ต.สระคู อ.สุวรรณภูมิ จ.ร้อยเอ็ด 45130", "เบอร์โทรศัพท์": "0-4358-1350", "แฟ๊กซ์": "0-4358-1350", "พิกัด_Lat": "15.608743", "พิกัด_Lng": "103.799062" }, "geometry": { "type": "Point", "coordinates": [ 103.799062, 15.608743 ] } },
{ "type": "Feature", "properties": { "กปภ_เขต": 7.000000, "กปภ_สาขา": "กปภ.สาขาอุดรธานี", "ที่อยู่": "444 ม.11 ซ.บ้านหนองนาเกลือ ต.หมากแข้ง อ.เมือง จ.อุดรธานี 41000", "เบอร์โทรศัพท์": "0-4222-2733 , 0-4224-7974", "แฟ๊กซ์": "0-4224-2274", "พิกัด_Lat": "17.419069", "พิกัด_Lng": "102.778184" }, "geometry": { "type": "Point", "coordinates": [ 102.778184, 17.419069 ] } },
{ "type": "Feature", "properties": { "กปภ_เขต": 7.000000, "กปภ_สาขา": "กปภ.สาขากุมภวาปี", "ที่อยู่": "777 ม.126 ถ.พิศาลสารกิจ ต.พันดอน อ.กุมภวาปี จ.อุดรธานี 41370", "เบอร์โทรศัพท์": "0-4233-1240", "แฟ๊กซ์": "0-4233-1240", "พิกัด_Lat": "17.130847", "พิกัด_Lng": "102.952445" }, "geometry": { "type": "Point", "coordinates": [ 102.952445, 17.130847 ] } },
{ "type": "Feature", "properties": { "กปภ_เขต": 7.000000, "กปภ_สาขา": "กปภ.สาขาบ้านผือ", "ที่อยู่": "ม.8 ถ.ชนบทบำรุง ต.บ้านผือ อ.บ้านผือ จ.อุดรธานี 41160", "เบอร์โทรศัพท์": "0-4228-1407", "แฟ๊กซ์": "0-4228-2579", "พิกัด_Lat": "17.686907", "พิกัด_Lng": "102.473637" }, "geometry": { "type": "Point", "coordinates": [ 102.473637, 17.686907 ] } },
{ "type": "Feature", "properties": { "กปภ_เขต": 7.000000, "กปภ_สาขา": "กปภ.สาขาบ้านดุง", "ที่อยู่": "155 ถ.บริบาลดำริ ต.ศรีสุทโธ อ.บ้านดุง จ.อุดรธานี 41190", "เบอร์โทรศัพท์": "0-4227-1557", "แฟ๊กซ์": "0-4227-3616", "พิกัด_Lat": "17.683306", "พิกัด_Lng": "103.252712" }, "geometry": { "type": "Point", "coordinates": [ 103.252712, 17.683306 ] } },
{ "type": "Feature", "properties": { "กปภ_เขต": 7.000000, "กปภ_สาขา": "กปภ.สาขาหนองบัวลำภู", "ที่อยู่": "186\/5 ถ.โพธิ์ชัย ต.หนองบัว อ.เมือง จ.หนองบัวลำภู 39000", "เบอร์โทรศัพท์": "0-4231-1379", "แฟ๊กซ์": "0-4231-2163", "พิกัด_Lat": "17.202014", "พิกัด_Lng": "102.444101" }, "geometry": { "type": "Point", "coordinates": [ 102.444101, 17.202014 ] } },
{ "type": "Feature", "properties": { "กปภ_เขต": 7.000000, "กปภ_สาขา": "กปภ.สาขาเลย", "ที่อยู่": "76 ถ.มะลิวัลย์ ต.กุดป่อง อ.เมือง อ.เมือง 42000", "เบอร์โทรศัพท์": "0-4281-1612", "แฟ๊กซ์": "0-4281-1631", "พิกัด_Lat": "17.476293", "พิกัด_Lng": "101.723204" }, "geometry": { "type": "Point", "coordinates": [ 101.723204, 17.476293 ] } },
{ "type": "Feature", "properties": { "กปภ_เขต": 7.000000, "กปภ_สาขา": "กปภ.สาขาเชียงคาน", "ที่อยู่": "405 ม.1 ถ.ศรีเชียงคาน ต.เชียงคาน อ.เชียงคาน จ.เลย 42110", "เบอร์โทรศัพท์": "0-4282-1122, 0-4282-1050", "แฟ๊กซ์": "0-4282-1122", "พิกัด_Lat": "17.891525", "พิกัด_Lng": "101.648288" }, "geometry": { "type": "Point", "coordinates": [ 101.648288, 17.891525 ] } },
{ "type": "Feature", "properties": { "กปภ_เขต": 7.000000, "กปภ_สาขา": "กปภ.สาขาด่านซ้าย", "ที่อยู่": "111 ม.14 ถ.เลย-หล่มสัก ต.ด่านซ้าย อ.ด่านซ้าย จ.เลย 42120", "เบอร์โทรศัพท์": "0-4289-1357", "แฟ๊กซ์": "0-4289-1320", "พิกัด_Lat": "17.269930", "พิกัด_Lng": "101.144427" }, "geometry": { "type": "Point", "coordinates": [ 101.144427, 17.26993 ] } },
{ "type": "Feature", "properties": { "กปภ_เขต": 7.000000, "กปภ_สาขา": "กปภ.สาขาวังสะพุง", "ที่อยู่": "246 ม.5 ถ.ภูมิวิธี ต.วังสะพุง อ.วังสะพุง จ.เลย 42130", "เบอร์โทรศัพท์": "0-4284-1033", "แฟ๊กซ์": "0-4284-1033", "พิกัด_Lat": "17.297777", "พิกัด_Lng": "101.7655" }, "geometry": { "type": "Point", "coordinates": [ 101.7655, 17.297777 ] } },
{ "type": "Feature", "properties": { "กปภ_เขต": 7.000000, "กปภ_สาขา": "กปภ.สาขาหนองคาย", "ที่อยู่": "001 ถ.ประจักษ์  ต.ในเมือง อ.เมือง จ.หนองคาย 43000", "เบอร์โทรศัพท์": "0-4246-0917, 0-4241-1145", "แฟ๊กซ์": "0-424-60917", "พิกัด_Lat": "17.880710", "พิกัด_Lng": "102.745348" }, "geometry": { "type": "Point", "coordinates": [ 102.745348, 17.88071 ] } },
{ "type": "Feature", "properties": { "กปภ_เขต": 7.000000, "กปภ_สาขา": "กปภ.สาขาบึงกาฬ", "ที่อยู่": "222 ม.9 ต.วิศิษฐ์ อ.บึงกาฬ จ.บึงกาฬ 43140", "เบอร์โทรศัพท์": "0-4249-1186", "แฟ๊กซ์": "0-4249-2148", "พิกัด_Lat": "18.374404", "พิกัด_Lng": "103.643728" }, "geometry": { "type": "Point", "coordinates": [ 103.643728, 18.374404 ] } },
{ "type": "Feature", "properties": { "กปภ_เขต": 7.000000, "กปภ_สาขา": "กปภ.สาขาศรีเชียงใหม่", "ที่อยู่": "399 ม.3 ถ.ท่าบ่อ-สังคม ต.พานพร้าว อ.ศรีเชียงใหม่ จ.หนองคาย 43130", "เบอร์โทรศัพท์": "0-4245-1987", "แฟ๊กซ์": "0-4245-1839", "พิกัด_Lat": "17.956785", "พิกัด_Lng": "102.576994" }, "geometry": { "type": "Point", "coordinates": [ 102.576994, 17.956785 ] } },
{ "type": "Feature", "properties": { "กปภ_เขต": 7.000000, "กปภ_สาขา": "กปภ.สาขาโพนพิสัย", "ที่อยู่": "128 ม.4 ต.จุมพล อ.โพนพิสัย จ.หนองคาย 43120", "เบอร์โทรศัพท์": "0-4247-1029", "แฟ๊กซ์": "0-4247-1029", "พิกัด_Lat": "18.060601", "พิกัด_Lng": "103.085560" }, "geometry": { "type": "Point", "coordinates": [ 103.08556, 18.060601 ] } },
{ "type": "Feature", "properties": { "กปภ_เขต": 7.000000, "กปภ_สาขา": "กปภ.สาขาสกลนคร", "ที่อยู่": "1700 ถ.มรรคาลัย ต.ธาตุเชิงชุม อ.เมือง จ.สกลนคร 47000", "เบอร์โทรศัพท์": "0-4273-0465, 0-4271-1413", "แฟ๊กซ์": "0-42730464", "พิกัด_Lat": "17.168863", "พิกัด_Lng": "104.153305" }, "geometry": { "type": "Point", "coordinates": [ 104.153305, 17.168863 ] } },
{ "type": "Feature", "properties": { "กปภ_เขต": 7.000000, "กปภ_สาขา": "กปภ.สาขาสว่างแดนดิน", "ที่อยู่": "458 ม.20 ถ.ประชา ต.สว่างแดนดิน อ.สว่างแดนดิน จ.สกลนคร 47110", "เบอร์โทรศัพท์": "0-4272-1993, 0-4272-1003", "แฟ๊กซ์": "0-4272-1993", "พิกัด_Lat": "17.474112", "พิกัด_Lng": "103.471398" }, "geometry": { "type": "Point", "coordinates": [ 103.471398, 17.474112 ] } },
{ "type": "Feature", "properties": { "กปภ_เขต": 7.000000, "กปภ_สาขา": "กปภ.สาขาพังโคน", "ที่อยู่": "182 ม.2 ถนนพังโคน-วาริชภูมิ ต.พังโคน อ.พังโคน จ.สกลนคร 47160", "เบอร์โทรศัพท์": "0-4277-1350", "แฟ๊กซ์": "0-4277-1350", "พิกัด_Lat": "17.361679", "พิกัด_Lng": "103.708584" }, "geometry": { "type": "Point", "coordinates": [ 103.708584, 17.361679 ] } },
{ "type": "Feature", "properties": { "กปภ_เขต": 7.000000, "กปภ_สาขา": "กปภ.สาขานครพนม", "ที่อยู่": "18 ถ.เทศาประดิษฐ์ ต.หนองแสง อ.เมือง จ.นครพนม 48000", "เบอร์โทรศัพท์": "0-4251-1409, 0-4251-3140", "แฟ๊กซ์": "0-4251-3141", "พิกัด_Lat": "17.415666", "พิกัด_Lng": "104.777091" }, "geometry": { "type": "Point", "coordinates": [ 104.777091, 17.415666 ] } },
{ "type": "Feature", "properties": { "กปภ_เขต": 7.000000, "กปภ_สาขา": "กปภ.สาขาธาตุพนม", "ที่อยู่": "366 ม.13 ถ.ชยางกูร ต.ธาตุพนม อ.ธาตุพนม จ.นครพนม 48110", "เบอร์โทรศัพท์": "0-4254-1154", "แฟ๊กซ์": "0-4254-0151", "พิกัด_Lat": "16.952887", "พิกัด_Lng": "104.724973" }, "geometry": { "type": "Point", "coordinates": [ 104.724973, 16.952887 ] } },
{ "type": "Feature", "properties": { "กปภ_เขต": 7.000000, "กปภ_สาขา": "กปภ.สาขาบ้านแพง", "ที่อยู่": "338 ม.5 ถ.บ้านแพง-โพธิ์ชัย อ.บ้านแพง จ.นครพนม 48140", "เบอร์โทรศัพท์": "0-4259-1242", "แฟ๊กซ์": "0-4259-1242", "พิกัด_Lat": "17.969819", "พิกัด_Lng": "104.208485" }, "geometry": { "type": "Point", "coordinates": [ 104.208485, 17.969819 ] } },
{ "type": "Feature", "properties": { "กปภ_เขต": 7.000000, "กปภ_สาขา": "กปภ.สาขาศรีสงคราม", "ที่อยู่": "480 ม.7 ต.ศรีสงคราม อ.ศรีสงคราม จ.นครพนม 48110", "เบอร์โทรศัพท์": "0-4259-9240", "แฟ๊กซ์": "0-4259-9240", "พิกัด_Lat": "17.625670", "พิกัด_Lng": "104.251931" }, "geometry": { "type": "Point", "coordinates": [ 104.251931, 17.62567 ] } },
{ "type": "Feature", "properties": { "กปภ_เขต": 8.000000, "กปภ_สาขา": "กปภ.สาขาอุบลราชธานี", "ที่อยู่": "190 ถ.ชลประทาน-ท่อบ่อ ต.ในเมือง อ.เมือง จ.อุบลราชธานี 34000", "เบอร์โทรศัพท์": "0-4524-3910-1", "แฟ๊กซ์": "0-4524-3911", "พิกัด_Lat": "15.238507", "พิกัด_Lng": "104.835937" }, "geometry": { "type": "Point", "coordinates": [ 104.835937, 15.238507 ] } },
{ "type": "Feature", "properties": { "กปภ_เขต": 8.000000, "กปภ_สาขา": "กปภ.สาขาพิบูลมังสาหาร", "ที่อยู่": "62 ถ.นามมนตรี ต.พิบูลมังสาหาร อ.พิบูลมังสาหาร จ.อุบลราชธานี 34110", "เบอร์โทรศัพท์": "0-4544-1003", "แฟ๊กซ์": "0-4544-1830", "พิกัด_Lat": "15.254219", "พิกัด_Lng": "105.230362" }, "geometry": { "type": "Point", "coordinates": [ 105.230362, 15.254219 ] } },
{ "type": "Feature", "properties": { "กปภ_เขต": 8.000000, "กปภ_สาขา": "กปภ.สาขาเดชอุดม", "ที่อยู่": "384 ม.7 ถ.เกษม ต.เมืองเดช อ.เดชอุดม จ.อุบลราชธานี 34160", "เบอร์โทรศัพท์": "0-4536-1151", "แฟ๊กซ์": "0-4536-2317", "พิกัด_Lat": "14.900512", "พิกัด_Lng": "105.076712" }, "geometry": { "type": "Point", "coordinates": [ 105.076712, 14.900512 ] } },
{ "type": "Feature", "properties": { "กปภ_เขต": 8.000000, "กปภ_สาขา": "กปภ.สาขาเขมราฐ", "ที่อยู่": "120 ม.1 ถ.อรุณประเสริฐ ต.เขมราฐ อ.เขมราฐ จ.อุบลราชธานี 34170", "เบอร์โทรศัพท์": "0-4549-1202", "แฟ๊กซ์": "0-4549-1202", "พิกัด_Lat": "16.039308", "พิกัด_Lng": "105.216238" }, "geometry": { "type": "Point", "coordinates": [ 105.216238, 16.039308 ] } },
{ "type": "Feature", "properties": { "กปภ_เขต": 8.000000, "กปภ_สาขา": "กปภ.สาขาอำนาจเจริญ", "ที่อยู่": "13 ถ.ชยางกูร ต.ในเมือง อ.เมือง จ.อำนาจเจริญ 37000", "เบอร์โทรศัพท์": "0-4545-1007", "แฟ๊กซ์": "0-4545-1077", "พิกัด_Lat": "15.874376", "พิกัด_Lng": "104.624018" }, "geometry": { "type": "Point", "coordinates": [ 104.624018, 15.874376 ] } },
{ "type": "Feature", "properties": { "กปภ_เขต": 8.000000, "กปภ_สาขา": "กปภ.สาขายโสธร", "ที่อยู่": "41 ถ.เทศบาล1 ต.ในเมือง อ.เมือง จ.ยโสธร 35000", "เบอร์โทรศัพท์": "0-4571-1540", "แฟ๊กซ์": "0-4571-1541", "พิกัด_Lat": "15.804467", "พิกัด_Lng": "104.142351" }, "geometry": { "type": "Point", "coordinates": [ 104.142351, 15.804467 ] } },
{ "type": "Feature", "properties": { "กปภ_เขต": 8.000000, "กปภ_สาขา": "กปภ.สาขาเลิงนกทา", "ที่อยู่": "หมู่ 12 ถ.ทยาปัสสา ต.สามแยก อ.เลิงนกทา จ.ยโสธร 35120", "เบอร์โทรศัพท์": "0-4578-1353", "แฟ๊กซ์": "0-4578-1353", "พิกัด_Lat": "16.203012", "พิกัด_Lng": "104.546998" }, "geometry": { "type": "Point", "coordinates": [ 104.546998, 16.203012 ] } },
{ "type": "Feature", "properties": { "กปภ_เขต": 8.000000, "กปภ_สาขา": "กปภ.สาขามหาชนะชัย", "ที่อยู่": "2 ม.2 ถ.ธรรมรงค์ ต.ฟ้าหยาด อ.มหาชนะชัย จ.ยโสธร 35130", "เบอร์โทรศัพท์": "0-4579-9101", "แฟ๊กซ์": "0-4579-9613", "พิกัด_Lat": "15.534748", "พิกัด_Lng": "104.243365" }, "geometry": { "type": "Point", "coordinates": [ 104.243365, 15.534748 ] } },
{ "type": "Feature", "properties": { "กปภ_เขต": 8.000000, "กปภ_สาขา": "กปภ.สาขาบุรีรัมย์", "ที่อยู่": "2\/19 ถ.บุลำดวน ต.ในเมือง อ.เมือง จ.บุรีรัมย์ 31000", "เบอร์โทรศัพท์": "0-4461-1597", "แฟ๊กซ์": "0-4561-1644", "พิกัด_Lat": "14.992734", "พิกัด_Lng": "103.096068" }, "geometry": { "type": "Point", "coordinates": [ 103.096068, 14.992734 ] } },
{ "type": "Feature", "properties": { "กปภ_เขต": 8.000000, "กปภ_สาขา": "กปภ.สาขาสตึก", "ที่อยู่": "178 ม.12 ถ.บรบือ-บุรีรัมย์  ต.นิคม อ.สตึก จ.บุรีรัมย์ 31150", "เบอร์โทรศัพท์": "0-4468-0070, 0-8106-65335", "แฟ๊กซ์": "0-4468-1757", "พิกัด_Lat": "15.278848", "พิกัด_Lng": "103.278499" }, "geometry": { "type": "Point", "coordinates": [ 103.278499, 15.278848 ] } },
{ "type": "Feature", "properties": { "กปภ_เขต": 8.000000, "กปภ_สาขา": "กปภ.สาขาลำปลายมาศ", "ที่อยู่": "726\/5 ม.9 ถ.รถไฟพัฒนา ต.ลำปลายมาศ อ.ลำปลายมาศ จ.บุรีรัมย์ 31120", "เบอร์โทรศัพท์": "0-4466-1158", "แฟ๊กซ์": "0-4466-1499", "พิกัด_Lat": "15.026886", "พิกัด_Lng": "102.841121" }, "geometry": { "type": "Point", "coordinates": [ 102.841121, 15.026886 ] } },
{ "type": "Feature", "properties": { "กปภ_เขต": 8.000000, "กปภ_สาขา": "กปภ.สาขานางรอง", "ที่อยู่": "59 ถ.ศรีกัลยา ต.นางรอง  อ.นางรอง จ. บุรีรัมย์ 31110", "เบอร์โทรศัพท์": "0-4463-1135", "แฟ๊กซ์": "0-4463-1135", "พิกัด_Lat": "14.635649", "พิกัด_Lng": "102.789335" }, "geometry": { "type": "Point", "coordinates": [ 102.789335, 14.635649 ] } },
{ "type": "Feature", "properties": { "กปภ_เขต": 8.000000, "กปภ_สาขา": "กปภ.สาขาละหานทราย", "ที่อยู่": "40 ม.6 ถ.ละหานทราย- ประคำ ต.ละหานทราย อ.ละหานทราย จ.บุรีรัมย์ 31170", "เบอร์โทรศัพท์": "0-4465-6019", "แฟ๊กซ์": "0-4465-6019", "พิกัด_Lat": "14.412748", "พิกัด_Lng": "102.840067" }, "geometry": { "type": "Point", "coordinates": [ 102.840067, 14.412748 ] } },
{ "type": "Feature", "properties": { "กปภ_เขต": 8.000000, "กปภ_สาขา": "กปภ.สาขาสุรินทร์", "ที่อยู่": "31 ถ.กรุงศรีนอก ต.ในเมือง อ. เมือง จ.สุรินทร์ 32000", "เบอร์โทรศัพท์": "0-4451-1319", "แฟ๊กซ์": "0-4551-4671", "พิกัด_Lat": "14.879171", "พิกัด_Lng": "103.488734" }, "geometry": { "type": "Point", "coordinates": [ 103.488734, 14.879171 ] } },
{ "type": "Feature", "properties": { "กปภ_เขต": 8.000000, "กปภ_สาขา": "กปภ.สาขาศีขรภูมิ", "ที่อยู่": "775\/1 ม.1 ถ.เสรีธิปัตย์ ต.ระแงง อ.ศีขรภูมิ จ.สุรินทร์ 32170", "เบอร์โทรศัพท์": "0-4456-1287", "แฟ๊กซ์": "0-4456-1287", "พิกัด_Lat": "14.948081", "พิกัด_Lng": "103.796065" }, "geometry": { "type": "Point", "coordinates": [ 103.796065, 14.948081 ] } },
{ "type": "Feature", "properties": { "กปภ_เขต": 8.000000, "กปภ_สาขา": "กปภ.สาขารัตนบุรี", "ที่อยู่": "145 ม.8 ถ.ศรีรัตน์ ต.รัตนบุรี อ. รัตนบุรี จ.สุรินทร์ 32130", "เบอร์โทรศัพท์": "0-4459-9210", "แฟ๊กซ์": "0-4459-9210", "พิกัด_Lat": "15.309689", "พิกัด_Lng": "103.848205" }, "geometry": { "type": "Point", "coordinates": [ 103.848205, 15.309689 ] } },
{ "type": "Feature", "properties": { "กปภ_เขต": 8.000000, "กปภ_สาขา": "กปภ.สาขาสังขะ", "ที่อยู่": "160 ม.1 ถ.สังขะ-บัวเชด ต.บ้านชบ อ.สังขะ จ.สุรินทร์ 33150", "เบอร์โทรศัพท์": "0-4457-1968", "แฟ๊กซ์": "0-4457-1968", "พิกัด_Lat": "14.612743", "พิกัด_Lng": "103.853682" }, "geometry": { "type": "Point", "coordinates": [ 103.853682, 14.612743 ] } },
{ "type": "Feature", "properties": { "กปภ_เขต": 8.000000, "กปภ_สาขา": "กปภ.สาขาศรีสะเกษ", "ที่อยู่": "เลขที่ 10\/32 ถ.กสิกรรม ต.เมืองเนือ อ. เมือง จ.ศรีสะเกษ 33000", "เบอร์โทรศัพท์": "0-4561-1475", "แฟ๊กซ์": "0-4561-4277", "พิกัด_Lat": "15.121077", "พิกัด_Lng": "104.319414" }, "geometry": { "type": "Point", "coordinates": [ 104.319414, 15.121077 ] } },
{ "type": "Feature", "properties": { "กปภ_เขต": 8.000000, "กปภ_สาขา": "กปภ.สาขากันทรลักษ์", "ที่อยู่": "356 ม.6 ต.เวียงเหนือ อ.กันทรลักษ์ จ.ศรีสะเกษ 33110", "เบอร์โทรศัพท์": "0-4566-1455", "แฟ๊กซ์": "0-4566-1205", "พิกัด_Lat": "14.635419", "พิกัด_Lng": "104.660431" }, "geometry": { "type": "Point", "coordinates": [ 104.660431, 14.635419 ] } },
{ "type": "Feature", "properties": { "กปภ_เขต": 8.000000, "กปภ_สาขา": "กปภ.สาขามุกดาหาร", "ที่อยู่": "49 ถ.เมืองใหม่ ต.มุกดาหาร อ.เมือง จ.มุกดาหาร 49000", "เบอร์โทรศัพท์": "0-4261-1131", "แฟ๊กซ์": "0-4261-4185", "พิกัด_Lat": "16.542932", "พิกัด_Lng": "104.700350" }, "geometry": { "type": "Point", "coordinates": [ 104.70035, 16.542932 ] } },
{ "type": "Feature", "properties": { "กปภ_เขต": 9.000000, "กปภ_สาขา": "กปภ.สาขาเชียงใหม่(ชั้นพิเศษ)", "ที่อยู่": "330 ถ.เชียงใหม่-ลำปาง ต.ป่าตัน อ.เมือง จ.เชียงใหม่ 50300", "เบอร์โทรศัพท์": "0-5323-3479, 0-5323-3480, 092-2245470", "แฟ๊กซ์": "0-5325-2272", "พิกัด_Lat": "18.809316", "พิกัด_Lng": "98.998579" }, "geometry": { "type": "Point", "coordinates": [ 98.998579, 18.809316 ] } },
{ "type": "Feature", "properties": { "กปภ_เขต": 9.000000, "กปภ_สาขา": "กปภ.สาขาฮอด", "ที่อยู่": "178 ม.10 ต.หางดง อ.ฮอด จ.เชียงใหม่ 50240", "เบอร์โทรศัพท์": "0-5346-1066", "แฟ๊กซ์": "0-5346-1066", "พิกัด_Lat": "18.181171", "พิกัด_Lng": "98.612815" }, "geometry": { "type": "Point", "coordinates": [ 98.612815, 18.181171 ] } },
{ "type": "Feature", "properties": { "กปภ_เขต": 9.000000, "กปภ_สาขา": "กปภ.สาขาสันกำแพง", "ที่อยู่": "36 ม.10 ต.สันกำแพง อ.สันกำแพง จ.เชียงใหม่ 50130", "เบอร์โทรศัพท์": "0-5333-1755", "แฟ๊กซ์": "0-5339-0582", "พิกัด_Lat": "18.754529", "พิกัด_Lng": "99.099416" }, "geometry": { "type": "Point", "coordinates": [ 99.099416, 18.754529 ] } },
{ "type": "Feature", "properties": { "กปภ_เขต": 9.000000, "กปภ_สาขา": "กปภ.สาขาแม่ริม", "ที่อยู่": "449 ม.1 ต.ริมใต้ อ.แม่ริม จ.เชียงใหม่ 50180", "เบอร์โทรศัพท์": "0-5329-7776", "แฟ๊กซ์": "0-5329-7253 ต่อ 13", "พิกัด_Lat": "18.912998", "พิกัด_Lng": "98.932698" }, "geometry": { "type": "Point", "coordinates": [ 98.932698, 18.912998 ] } },
{ "type": "Feature", "properties": { "กปภ_เขต": 9.000000, "กปภ_สาขา": "กปภ.สาขาแม่แตง", "ที่อยู่": "170 ม.2 ต.สันมหาพน อ.แม่แตง จ.เชียงใหม่ 50150", "เบอร์โทรศัพท์": "0-5347-1295", "แฟ๊กซ์": "0-1961-1137", "พิกัด_Lat": "19.125042", "พิกัด_Lng": "98.941158" }, "geometry": { "type": "Point", "coordinates": [ 98.941158, 19.125042 ] } },
{ "type": "Feature", "properties": { "กปภ_เขต": 9.000000, "กปภ_สาขา": "กปภ.สาขาฝาง", "ที่อยู่": "2 ม.4 ถ.โชตนา ต.เวียง อ.ฝาง จ.เชียงใหม่ 50110", "เบอร์โทรศัพท์": "0-5345-1123", "แฟ๊กซ์": "0-5345-2418", "พิกัด_Lat": "19.911714", "พิกัด_Lng": "99.204547" }, "geometry": { "type": "Point", "coordinates": [ 99.204547, 19.911714 ] } },
{ "type": "Feature", "properties": { "กปภ_เขต": 9.000000, "กปภ_สาขา": "กปภ.สาขาจอมทอง", "ที่อยู่": "399 ม.15 ถ.จอมทอง-อินทนนท์ ต.ข่วงเปา อ.จอมทอง จ.เชียงใหม่ 50160", "เบอร์โทรศัพท์": "0-5382-6981", "แฟ๊กซ์": "0-5382-6981", "พิกัด_Lat": "18.440901", "พิกัด_Lng": "98.678485" }, "geometry": { "type": "Point", "coordinates": [ 98.678485, 18.440901 ] } },
{ "type": "Feature", "properties": { "กปภ_เขต": 9.000000, "กปภ_สาขา": "กปภ.สาขาแม่ฮ่องสอน", "ที่อยู่": "69 ถ.ปางล้อนิคม ต.จองคำ อ.เมือง จ.แม่ฮ่องสอน 58000", "เบอร์โทรศัพท์": "0-5369-5470", "แฟ๊กซ์": "0-5362-0024", "พิกัด_Lat": "19.305268", "พิกัด_Lng": "97.970414" }, "geometry": { "type": "Point", "coordinates": [ 97.970414, 19.305268 ] } },
{ "type": "Feature", "properties": { "กปภ_เขต": 9.000000, "กปภ_สาขา": "กปภ.สาขาแม่สะเรียง", "ที่อยู่": "19 ม.12 ถ.แม่สะเรียง ต.บ้านกาศ อ.แม่สะเรียง จ.แม่ฮ่องสอน 58110", "เบอร์โทรศัพท์": "0-5368-1368", "แฟ๊กซ์": "0-5368-1368", "พิกัด_Lat": "18.170519", "พิกัด_Lng": "97.932365" }, "geometry": { "type": "Point", "coordinates": [ 97.932365, 18.170519 ] } },
{ "type": "Feature", "properties": { "กปภ_เขต": 9.000000, "กปภ_สาขา": "กปภ.สาขาลำพูน", "ที่อยู่": "266 ถ.รอบเมืองนอก ต.ในเวียง อ.เมือง จ.ลำพูน 51000", "เบอร์โทรศัพท์": "0-5351-1072, 0-5351-1334", "แฟ๊กซ์": "0-5356-0901", "พิกัด_Lat": "18.573063", "พิกัด_Lng": "99.009337" }, "geometry": { "type": "Point", "coordinates": [ 99.009337, 18.573063 ] } },
{ "type": "Feature", "properties": { "กปภ_เขต": 9.000000, "กปภ_สาขา": "กปภ.สาขาบ้านโฮ่ง", "ที่อยู่": "240 ม.3 ต.บ้านโฮ่ง อ.บ้านโฮ่ง จ.ลำพูน 51130", "เบอร์โทรศัพท์": "0-5398-0292", "แฟ๊กซ์": "0-5398-0292", "พิกัด_Lat": "18.305042", "พิกัด_Lng": "98.803564" }, "geometry": { "type": "Point", "coordinates": [ 98.803564, 18.305042 ] } },
{ "type": "Feature", "properties": { "กปภ_เขต": 9.000000, "กปภ_สาขา": "กปภ.สาขาลำปาง", "ที่อยู่": "440 ถ.พหลโยธิน ต.หัวเวียง อ.เมือง จ.ลำปาง 52000", "เบอร์โทรศัพท์": "0-5421-7157, 0-5422-8173, 0-5422-8193", "แฟ๊กซ์": "0-5432-2880", "พิกัด_Lat": "18.291347", "พิกัด_Lng": "99.513491" }, "geometry": { "type": "Point", "coordinates": [ 99.513491, 18.291347 ] } },
{ "type": "Feature", "properties": { "กปภ_เขต": 9.000000, "กปภ_สาขา": "กปภ.สาขาเกาะคา", "ที่อยู่": "273 ม.3 ถ.พหลโยธิน ต.ท่าศาลา อ.เกาะคา จ.ลำปาง 52130", "เบอร์โทรศัพท์": "0-5428-1388", "แฟ๊กซ์": "0-5428-1388", "พิกัด_Lat": "18.200789", "พิกัด_Lng": "99.407709" }, "geometry": { "type": "Point", "coordinates": [ 99.407709, 18.200789 ] } },
{ "type": "Feature", "properties": { "กปภ_เขต": 9.000000, "กปภ_สาขา": "กปภ.สาขาเถิน", "ที่อยู่": "190 ม.5 ถ.สายเอเชีย ต.แม่ปะ อ.เถิน จ.ลำปาง 52160", "เบอร์โทรศัพท์": "0-5429-1598", "แฟ๊กซ์": "0-5432-6771", "พิกัด_Lat": "17.659182", "พิกัด_Lng": "99.248170" }, "geometry": { "type": "Point", "coordinates": [ 99.24817, 17.659182 ] } },
{ "type": "Feature", "properties": { "กปภ_เขต": 9.000000, "กปภ_สาขา": "กปภ.สาขาแพร่", "ที่อยู่": "2 ถ.ศศิบุตร ต.ในเวียง อ.เมือง จ.แพร่ 54000", "เบอร์โทรศัพท์": "0-5451-1185, 0-5452-2992", "แฟ๊กซ์": "0-5452-2992", "พิกัด_Lat": "18.133829", "พิกัด_Lng": "100.142933" }, "geometry": { "type": "Point", "coordinates": [ 100.142933, 18.133829 ] } },
{ "type": "Feature", "properties": { "กปภ_เขต": 9.000000, "กปภ_สาขา": "กปภ.สาขาเด่นชัย", "ที่อยู่": "557 ม.11 ต.เด่นชัย อ.เด่นชัย จ.แพร่ 54110", "เบอร์โทรศัพท์": "0-5461-3379", "แฟ๊กซ์": "0-5461-3379", "พิกัด_Lat": "17.980229", "พิกัด_Lng": "100.065566" }, "geometry": { "type": "Point", "coordinates": [ 100.065566, 17.980229 ] } },
{ "type": "Feature", "properties": { "กปภ_เขต": 9.000000, "กปภ_สาขา": "กปภ.สาขาร้องกวาง", "ที่อยู่": "177 ถ.ยันตรกิจโกศล ต.ร้องกวาง อ.ร้องกวาง จ.แพร่ 54140", "เบอร์โทรศัพท์": "0-5452-0565", "แฟ๊กซ์": "0-5452-0565", "พิกัด_Lat": "18.358336", "พิกัด_Lng": "100.335522" }, "geometry": { "type": "Point", "coordinates": [ 100.335522, 18.358336 ] } },
{ "type": "Feature", "properties": { "กปภ_เขต": 9.000000, "กปภ_สาขา": "กปภ.สาขาน่าน", "ที่อยู่": "ถ.สุมนเทวราช ต.ในเวียง อ.เมือง จ.น่าน 55000", "เบอร์โทรศัพท์": "0-5471-0578", "แฟ๊กซ์": "0-5477-4639", "พิกัด_Lat": "18.784876", "พิกัด_Lng": "100.779651" }, "geometry": { "type": "Point", "coordinates": [ 100.779651, 18.784876 ] } },
{ "type": "Feature", "properties": { "กปภ_เขต": 9.000000, "กปภ_สาขา": "กปภ.สาขาท่าวังผา", "ที่อยู่": "286 ม.5 ต.ท่าวังผา อ.ท่าวังผา จ.น่าน 55140", "เบอร์โทรศัพท์": "0-5479-9010", "แฟ๊กซ์": "0-5479-9010", "พิกัด_Lat": "19.124205", "พิกัด_Lng": "100.813657" }, "geometry": { "type": "Point", "coordinates": [ 100.813657, 19.124205 ] } },
{ "type": "Feature", "properties": { "กปภ_เขต": 9.000000, "กปภ_สาขา": "กปภ.สาขาพะเยา", "ที่อยู่": "1015\/1 ถ.พหลโยธิน ต.เวียง อ.เมือง จ.พะเยา 56000", "เบอร์โทรศัพท์": "0-5443-1090", "แฟ๊กซ์": "0-5448-1990", "พิกัด_Lat": "19.176026", "พิกัด_Lng": "99.891432" }, "geometry": { "type": "Point", "coordinates": [ 99.891432, 19.176026 ] } },
{ "type": "Feature", "properties": { "กปภ_เขต": 9.000000, "กปภ_สาขา": "กปภ.สาขาจุน", "ที่อยู่": "13\/5 ม.1 ถ.พะเยา-ปง ต.ห้วยข้าวก่ำ อ.จุน จ.พะเยา จ.พะเยา 56150", "เบอร์โทรศัพท์": "0-5445-9226", "แฟ๊กซ์": "0-5445-9226, 0-5442-0427", "พิกัด_Lat": "19.337487", "พิกัด_Lng": "100.132544" }, "geometry": { "type": "Point", "coordinates": [ 100.132544, 19.337487 ] } },
{ "type": "Feature", "properties": { "กปภ_เขต": 9.000000, "กปภ_สาขา": "กปภ.สาขาเชียงราย", "ที่อยู่": "1120 ม.1 ถ.ไกรสรสิทธิ์ อ.เมือง จ.เชียงราย 57000", "เบอร์โทรศัพท์": "0-5371-1655, 0-5371-3008, 0-5371-3007", "แฟ๊กซ์": "0-5371-3008", "พิกัด_Lat": "19.914809", "พิกัด_Lng": "99.825951" }, "geometry": { "type": "Point", "coordinates": [ 99.825951, 19.914809 ] } },
{ "type": "Feature", "properties": { "กปภ_เขต": 9.000000, "กปภ_สาขา": "กปภ.สาขาพาน", "ที่อยู่": "2180 ม.1 ถ.คลองชลประทาน ต.เมืองพาน อ.พาน จ.เชียงราย 57120", "เบอร์โทรศัพท์": "0-5372-1518", "แฟ๊กซ์": "0-5372-2809", "พิกัด_Lat": "19.540816", "พิกัด_Lng": "99.738757" }, "geometry": { "type": "Point", "coordinates": [ 99.738757, 19.540816 ] } },
{ "type": "Feature", "properties": { "กปภ_เขต": 9.000000, "กปภ_สาขา": "กปภ.สาขาเทิง", "ที่อยู่": "22 ม.15 ถ.เชียงราย-เทิง ต.เวียง อ.เทิง จ.เชียงราย 57000", "เบอร์โทรศัพท์": "0-5379-5666", "แฟ๊กซ์": "0-5379-5666", "พิกัด_Lat": "19.686408", "พิกัด_Lng": "100.190031" }, "geometry": { "type": "Point", "coordinates": [ 100.190031, 19.686408 ] } },
{ "type": "Feature", "properties": { "กปภ_เขต": 9.000000, "กปภ_สาขา": "กปภ.สาขาเวียงเชียงของ", "ที่อยู่": "472 ม.12 ถ.ทางหลวงหมายเลข 1020 ต.เวียง อ.เวียงเชียงของ จ.เชียงราย 57140", "เบอร์โทรศัพท์": "0-5379-1438", "แฟ๊กซ์": "0-5365-5208", "พิกัด_Lat": "20.258920", "พิกัด_Lng": "100.408713" }, "geometry": { "type": "Point", "coordinates": [ 100.408713, 20.25892 ] } },
{ "type": "Feature", "properties": { "กปภ_เขต": 9.000000, "กปภ_สาขา": "กปภ.สาขาแม่สาย", "ที่อยู่": "314 ม.1 ถ.พหลโยธิน ต.เวียงพางคำ อ.แม่สาย จ.เชียงราย 57130", "เบอร์โทรศัพท์": "0-5373-1010, 05373-2799", "แฟ๊กซ์": "0-5373-2799", "พิกัด_Lat": "20.439868", "พิกัด_Lng": "99.880425" }, "geometry": { "type": "Point", "coordinates": [ 99.880425, 20.439868 ] } },
{ "type": "Feature", "properties": { "กปภ_เขต": 9.000000, "กปภ_สาขา": "กปภ.สาขาแม่ขะจาน", "ที่อยู่": "697 ม.4 ต.วังเหนือ อ.วังเหนือ จ.ลำปาง 52140", "เบอร์โทรศัพท์": "0-5427-9145, 0-5370-4578", "แฟ๊กซ์": "0-5427-9145", "พิกัด_Lat": "19.160408", "พิกัด_Lng": "99.621567" }, "geometry": { "type": "Point", "coordinates": [ 99.621567, 19.160408 ] } },
{ "type": "Feature", "properties": { "กปภ_เขต": 10.000000, "กปภ_สาขา": "กปภ.สาขานครสวรรค์", "ที่อยู่": "158\/9 หมู่ 1 ถ. ท่าตะโก - นครสวรรค์ ต.นครสวรรค์ออก อ.เมือง จ.นครสวรรค์ 60000", "เบอร์โทรศัพท์": "0-5625-5456", "แฟ๊กซ์": "0-5625-5456", "พิกัด_Lat": "15.668328", "พิกัด_Lng": "100.135913" }, "geometry": { "type": "Point", "coordinates": [ 100.135913, 15.668328 ] } },
{ "type": "Feature", "properties": { "กปภ_เขต": 10.000000, "กปภ_สาขา": "กปภ.สาขาท่าตะโก", "ที่อยู่": "515 หมู่ 7 ต.ท่าตะโก อ.ท่าตะโก จ.นครสวรรค์ 60160", "เบอร์โทรศัพท์": "0-5624-9089", "แฟ๊กซ์": "0-5624-9508", "พิกัด_Lat": "15.643315", "พิกัด_Lng": "100.482058" }, "geometry": { "type": "Point", "coordinates": [ 100.482058, 15.643315 ] } },
{ "type": "Feature", "properties": { "กปภ_เขต": 10.000000, "กปภ_สาขา": "กปภ.สาขาลาดยาว", "ที่อยู่": "157\/1 หมู่ 5 ต.ลาดยาว อ.ลาดยาว จ.นครสวรรค์ 60150", "เบอร์โทรศัพท์": "0-5627-1432", "แฟ๊กซ์": "0-5627-1432", "พิกัด_Lat": "15.751757", "พิกัด_Lng": "99.788499" }, "geometry": { "type": "Point", "coordinates": [ 99.788499, 15.751757 ] } },
{ "type": "Feature", "properties": { "กปภ_เขต": 10.000000, "กปภ_สาขา": "กปภ.สาขาพยุหะคีรี", "ที่อยู่": "1\/2 หมู่ 4 ต.พยุหะ อ.พยุหะคีรี จ.นครสวรรค์ 60130", "เบอร์โทรศัพท์": "0-5634-1276", "แฟ๊กซ์": "0-5634-1275", "พิกัด_Lat": "15.464634", "พิกัด_Lng": "100.135170" }, "geometry": { "type": "Point", "coordinates": [ 100.13517, 15.464634 ] } },
{ "type": "Feature", "properties": { "กปภ_เขต": 10.000000, "กปภ_สาขา": "กปภ.สาขาชัยนาท", "ที่อยู่": "203 หมู่ 5 ต.บ้านกล้วย อ.เมือง จ.ชัยนาท 17000", "เบอร์โทรศัพท์": "056-411-213", "แฟ๊กซ์": "0-5641-1600", "พิกัด_Lat": "15.189753", "พิกัด_Lng": "100.123144" }, "geometry": { "type": "Point", "coordinates": [ 100.123144, 15.189753 ] } },
{ "type": "Feature", "properties": { "กปภ_เขต": 10.000000, "กปภ_สาขา": "กปภ.สาขาอุทัยธานี", "ที่อยู่": "116 หมู่ 5 ต.หนองฉาง อ.หนองฉาง จ.อุทัยธานี 61110", "เบอร์โทรศัพท์": "0-5653-1344", "แฟ๊กซ์": "0-5653-1344", "พิกัด_Lat": "15.393383", "พิกัด_Lng": "99.841000" }, "geometry": { "type": "Point", "coordinates": [ 99.841, 15.393383 ] } },
{ "type": "Feature", "properties": { "กปภ_เขต": 10.000000, "กปภ_สาขา": "กปภ.สาขากำแพงเพชร", "ที่อยู่": "74 ถ.เทศา 1 ต.ในเมือง อ.เมือง จ.กำแพงเพชร 62000", "เบอร์โทรศัพท์": "0-5571-1373", "แฟ๊กซ์": "0-5571-1373", "พิกัด_Lat": "16.479368", "พิกัด_Lng": "99.525389" }, "geometry": { "type": "Point", "coordinates": [ 99.525389, 16.479368 ] } },
{ "type": "Feature", "properties": { "กปภ_เขต": 10.000000, "กปภ_สาขา": "กปภ.สาขาขาณุวรลักษณบุรี", "ที่อยู่": "1522 หมู่ที่ 1 ต.สลกบาตร อ.ขาณุวรลักษบุรี จ.กำแพงเพชร 62000", "เบอร์โทรศัพท์": "0-5577-1277, 0-5577-1247", "แฟ๊กซ์": "0-5572-6461", "พิกัด_Lat": "15.995630", "พิกัด_Lng": "99.804685" }, "geometry": { "type": "Point", "coordinates": [ 99.804685, 15.99563 ] } },
{ "type": "Feature", "properties": { "กปภ_เขต": 10.000000, "กปภ_สาขา": "กปภ.สาขาตาก", "ที่อยู่": "9\/1 ถ. เทศบาล 1 ต.ในเมือง อ.เมือง จ.ตาก 63000", "เบอร์โทรศัพท์": "0-5551-1016, 0-5551-4723", "แฟ๊กซ์": "0-5551-4722", "พิกัด_Lat": "16.880501", "พิกัด_Lng": "99.125855" }, "geometry": { "type": "Point", "coordinates": [ 99.125855, 16.880501 ] } },
{ "type": "Feature", "properties": { "กปภ_เขต": 10.000000, "กปภ_สาขา": "กปภ.สาขาแม่สอด", "ที่อยู่": "322 หมู่ 1 ต.ท่าสายลวด อ.แม่สอด จ.ตาก 63110", "เบอร์โทรศัพท์": "0-5553-1001", "แฟ๊กซ์": "0-5554-4511", "พิกัด_Lat": "16.704910", "พิกัด_Lng": "98.543393" }, "geometry": { "type": "Point", "coordinates": [ 98.543393, 16.70491 ] } },
{ "type": "Feature", "properties": { "กปภ_เขต": 10.000000, "กปภ_สาขา": "กปภ.สาขาสุโขทัย", "ที่อยู่": "168 ม.4 ถ.ไทยชุมพล อ.เมือง จ.สุโขทัย 64000", "เบอร์โทรศัพท์": "0-5561-1023", "แฟ๊กซ์": "0-5561-3193", "พิกัด_Lat": "17.017065", "พิกัด_Lng": "99.820092" }, "geometry": { "type": "Point", "coordinates": [ 99.820092, 17.017065 ] } },
{ "type": "Feature", "properties": { "กปภ_เขต": 10.000000, "กปภ_สาขา": "กปภ.สาขาทุ่งเสลี่ยม", "ที่อยู่": "108 หมู่ 7 ต.กลางดง อ.ทุ่งเสลี่ยม จ.สุโขทัย 64150", "เบอร์โทรศัพท์": "0-5565-9190", "แฟ๊กซ์": "-", "พิกัด_Lat": "17.328049", "พิกัด_Lng": "99.527255" }, "geometry": { "type": "Point", "coordinates": [ 99.527255, 17.328049 ] } },
{ "type": "Feature", "properties": { "กปภ_เขต": 10.000000, "กปภ_สาขา": "กปภ.สาขาศรีสำโรง", "ที่อยู่": "ม.1 อำเภอศรีสำโรง จังหวัดสุโขทัย 64120", "เบอร์โทรศัพท์": "0-5568-1330, 0-5568-2578", "แฟ๊กซ์": "0-5568-1330", "พิกัด_Lat": "17.163461", "พิกัด_Lng": "99.861769" }, "geometry": { "type": "Point", "coordinates": [ 99.861769, 17.163461 ] } },
{ "type": "Feature", "properties": { "กปภ_เขต": 10.000000, "กปภ_สาขา": "กปภ.สาขาสวรรคโลก", "ที่อยู่": "104 หมู่ที่ 9 ต.ในเมือง อ.สวรรคโลก จ.สุโขทัย 64110", "เบอร์โทรศัพท์": "0-5564-1555", "แฟ๊กซ์": "0-5564-1555", "พิกัด_Lat": "17.347529", "พิกัด_Lng": "99.834377" }, "geometry": { "type": "Point", "coordinates": [ 99.834377, 17.347529 ] } },
{ "type": "Feature", "properties": { "กปภ_เขต": 10.000000, "กปภ_สาขา": "กปภ.สาขาศรีสัชนาลัย", "ที่อยู่": "940 หมู่ที่ 1 ถ.มหาดไทยบำรุง ต.เสี้ยว อ.ศรีสัชนาลัย จ.สุโขทัย 64130", "เบอร์โทรศัพท์": "0-5567-1238", "แฟ๊กซ์": "0-5567-1238", "พิกัด_Lat": "17.517687", "พิกัด_Lng": "99.760821" }, "geometry": { "type": "Point", "coordinates": [ 99.760821, 17.517687 ] } },
{ "type": "Feature", "properties": { "กปภ_เขต": 10.000000, "กปภ_สาขา": "กปภ.สาขาอุตรดิตถ์", "ที่อยู่": "51\/4 ม.2 ต.ผาจุก อ.เมือง จ.อุตรดิตถ์ 53000", "เบอร์โทรศัพท์": "0-5544-2493, 0-5541-2915", "แฟ๊กซ์": "0-5541-2915", "พิกัด_Lat": "17.655756", "พิกัด_Lng": "100.221740" }, "geometry": { "type": "Point", "coordinates": [ 100.22174, 17.655756 ] } },
{ "type": "Feature", "properties": { "กปภ_เขต": 10.000000, "กปภ_สาขา": "กปภ.สาขาพิษณุโลก", "ที่อยู่": "662 หมู่8 ต.วังทอง อ.วังทอง จ.พิษณุโลก 65130", "เบอร์โทรศัพท์": "0-5531-1375, 0-5531-2100", "แฟ๊กซ์": "0-5531-1375 ext 16", "พิกัด_Lat": "16.840016", "พิกัด_Lng": "100.392456" }, "geometry": { "type": "Point", "coordinates": [ 100.392456, 16.840016 ] } },
{ "type": "Feature", "properties": { "กปภ_เขต": 10.000000, "กปภ_สาขา": "กปภ.สาขานครไทย", "ที่อยู่": "391 หมู่ที่ 1 ต.นครไทย อ.นครไทย จ.พิษณุโลก 65120", "เบอร์โทรศัพท์": "0-5538-9084", "แฟ๊กซ์": "0-5538-9084", "พิกัด_Lat": "17.107981", "พิกัด_Lng": "100.845744" }, "geometry": { "type": "Point", "coordinates": [ 100.845744, 17.107981 ] } },
{ "type": "Feature", "properties": { "กปภ_เขต": 10.000000, "กปภ_สาขา": "กปภ.สาขาพิจิตร", "ที่อยู่": "102\/9 หมู่2 ถ.พิจิตร-วังกระดี่ทอง ต.ปากทาง อ.เมือง  จ.พิจิตร  66000", "เบอร์โทรศัพท์": "0-5699-0975-7", "แฟ๊กซ์": "0-5699-0975", "พิกัด_Lat": "16.477035", "พิกัด_Lng": "100.325794" }, "geometry": { "type": "Point", "coordinates": [ 100.325794, 16.477035 ] } },
{ "type": "Feature", "properties": { "กปภ_เขต": 10.000000, "กปภ_สาขา": "กปภ.สาขาบางมูลนาก", "ที่อยู่": "29 ถ. ประเวศน์เหนือ อ.บางมูลนาก จ.พิจิตร 66120", "เบอร์โทรศัพท์": "0-5663-1011, 0-5663-3497", "แฟ๊กซ์": "0-5663-1011", "พิกัด_Lat": "16.038332", "พิกัด_Lng": "100.377783" }, "geometry": { "type": "Point", "coordinates": [ 100.377783, 16.038332 ] } },
{ "type": "Feature", "properties": { "กปภ_เขต": 10.000000, "กปภ_สาขา": "กปภ.สาขาตะพานหิน", "ที่อยู่": "403 ถ.ริมน่าน อ.ตะพานหิน จ.พิจิตร 66110", "เบอร์โทรศัพท์": "0-5662-2170", "แฟ๊กซ์": "0-5662-2170", "พิกัด_Lat": "16.228227", "พิกัด_Lng": "100.418948" }, "geometry": { "type": "Point", "coordinates": [ 100.418948, 16.228227 ] } },
{ "type": "Feature", "properties": { "กปภ_เขต": 10.000000, "กปภ_สาขา": "กปภ.สาขาเพชรบูรณ์", "ที่อยู่": "4 ถ.สามัคคีชัย ต.ในเมือง อ.เมือง จ.เพชรบูรณ์ 67000", "เบอร์โทรศัพท์": "0-5671-1310", "แฟ๊กซ์": "0-5671-1444", "พิกัด_Lat": "16.423906", "พิกัด_Lng": "101.162095" }, "geometry": { "type": "Point", "coordinates": [ 101.162095, 16.423906 ] } },
{ "type": "Feature", "properties": { "กปภ_เขต": 10.000000, "กปภ_สาขา": "กปภ.สาขาหล่มสัก", "ที่อยู่": "132 ม.1 ต.วัดป่า อ.หล่มสัก จ.เพชรบูรณ์ 67110", "เบอร์โทรศัพท์": "0-5670-1198", "แฟ๊กซ์": "0-5670-1198", "พิกัด_Lat": "16.808501", "พิกัด_Lng": "101.248337" }, "geometry": { "type": "Point", "coordinates": [ 101.248337, 16.808501 ] } },
{ "type": "Feature", "properties": { "กปภ_เขต": 10.000000, "กปภ_สาขา": "กปภ.สาขาชนแดน", "ที่อยู่": "166 หมู่ 7 ต.ชนแดน อ.ชนแดน จ.เพชรบูรณ์ 67150", "เบอร์โทรศัพท์": "0-5676-1227", "แฟ๊กซ์": "0-5676-1227", "พิกัด_Lat": "16.184991", "พิกัด_Lng": "100.880871" }, "geometry": { "type": "Point", "coordinates": [ 100.880871, 16.184991 ] } },
{ "type": "Feature", "properties": { "กปภ_เขต": 10.000000, "กปภ_สาขา": "กปภ.สาขาหนองไผ่", "ที่อยู่": "530 หมู่ 6 ต.หนองไผ่ อ.หนองไผ่ จ.เพชรบูรณ์ 67140", "เบอร์โทรศัพท์": "0-5678-1598", "แฟ๊กซ์": "0-5678-1115", "พิกัด_Lat": "15.992192", "พิกัด_Lng": "101.063888" }, "geometry": { "type": "Point", "coordinates": [ 101.063888, 15.992192 ] } },
{ "type": "Feature", "properties": { "กปภ_เขต": 10.000000, "กปภ_สาขา": "กปภ.สาขาวิเชียรบุรี", "ที่อยู่": "101 ม.7 ต.สระประดู่ อ.วิเชียรบุรี จ.เพชรบูรณ์ 67130", "เบอร์โทรศัพท์": "0-5672-4353", "แฟ๊กซ์": "0-5672-4354", "พิกัด_Lat": "15.624958", "พิกัด_Lng": "101.053529" }, "geometry": { "type": "Point", "coordinates": [ 101.053529, 15.624958 ] } }
]
}
